STATION,DATE,REPORT_TYPE,SOURCE,AWND,BackupDirection,BackupDistance,BackupDistanceUnit,BackupElements,BackupElevation,BackupElevationUnit,BackupEquipment,BackupLatitude,BackupLongitude,BackupName,CDSD,CLDD,DSNW,DailyAverageDewPointTemperature,DailyAverageDryBulbTemperature,DailyAverageRelativeHumidity,DailyAverageSeaLevelPressure,DailyAverageStationPressure,DailyAverageWetBulbTemperature,DailyAverageWindSpeed,DailyCoolingDegreeDays,DailyDepartureFromNormalAverageTemperature,DailyHeatingDegreeDays,DailyMaximumDryBulbTemperature,DailyMinimumDryBulbTemperature,DailyPeakWindDirection,DailyPeakWindSpeed,DailyPrecipitation,DailySnowDepth,DailySnowfall,DailySustainedWindDirection,DailySustainedWindSpeed,DailyWeather,HDSD,HTDD,HeavyFog,HourlyAltimeterSetting,HourlyDewPointTemperature,HourlyDryBulbTemperature,HourlyPrecipitation,HourlyPresentWeatherType,HourlyPressureChange,HourlyPressureTendency,HourlyRelativeHumidity,HourlySeaLevelPressure,HourlySkyConditions,HourlyStationPressure,HourlyVisibility,HourlyWetBulbTemperature,HourlyWindDirection,HourlyWindGustSpeed,HourlyWindSpeed,MonthlyAverageRH,MonthlyDaysWithGT001Precip,MonthlyDaysWithGT010Precip,MonthlyDaysWithGT32Temp,MonthlyDaysWithGT90Temp,MonthlyDaysWithLT0Temp,MonthlyDaysWithLT32Temp,MonthlyDepartureFromNormalAverageTemperature,MonthlyDepartureFromNormalCoolingDegreeDays,MonthlyDepartureFromNormalHeatingDegreeDays,MonthlyDepartureFromNormalMaximumTemperature,MonthlyDepartureFromNormalMinimumTemperature,MonthlyDepartureFromNormalPrecipitation,MonthlyDewpointTemperature,MonthlyGreatestPrecip,MonthlyGreatestPrecipDate,MonthlyGreatestSnowDepth,MonthlyGreatestSnowDepthDate,MonthlyGreatestSnowfall,MonthlyGreatestSnowfallDate,MonthlyMaxSeaLevelPressureValue,MonthlyMaxSeaLevelPressureValueDate,MonthlyMaxSeaLevelPressureValueTime,MonthlyMaximumTemperature,MonthlyMeanTemperature,MonthlyMinSeaLevelPressureValue,MonthlyMinSeaLevelPressureValueDate,MonthlyMinSeaLevelPressureValueTime,MonthlyMinimumTemperature,MonthlySeaLevelPressure,MonthlyStationPressure,MonthlyTotalLiquidPrecipitation,MonthlyTotalSnowfall,MonthlyWetBulb,NormalsCoolingDegreeDay,NormalsHeatingDegreeDay,REM,REPORT_TYPE,SOURCE,ShortDurationEndDate005,ShortDurationEndDate010,ShortDurationEndDate015,ShortDurationEndDate020,ShortDurationEndDate030,ShortDurationEndDate045,ShortDurationEndDate060,ShortDurationEndDate080,ShortDurationEndDate100,ShortDurationEndDate120,ShortDurationEndDate150,ShortDurationEndDate180,ShortDurationPrecipitationValue005,ShortDurationPrecipitationValue010,ShortDurationPrecipitationValue015,ShortDurationPrecipitationValue020,ShortDurationPrecipitationValue030,ShortDurationPrecipitationValue045,ShortDurationPrecipitationValue060,ShortDurationPrecipitationValue080,ShortDurationPrecipitationValue100,ShortDurationPrecipitationValue120,ShortDurationPrecipitationValue150,ShortDurationPrecipitationValue180,Sunrise,Sunset,TStorms,WindEquipmentChangeDate
72287493134,2020-02-09T00:52:00,FM-15,7,,,3.89,mi,,,,,,,PENDING COOP,,,,,,,,,,,,,,,,,,,,,,,,,,,29.91,49,57,0.00,,+0.03,8,74,29.90,OVC:08 16,29.71,7.00,53,90,,3,,,,,,,,,,,,,,,,,,,,,,,,,,,,,,,,,,,,,MET09802/09/20 00:52:02 METAR KCQT 090852Z 09003KT 7SM OVC016 14/09 A2991 RMK AO2 SLP126 T01390094 58009,FM-15,7,,,,,,,,,,,,,,,,,,,,,,,,,,,,2006-02-03
72287493134,2020-02-09T01:52:00,FM-15,7,,,3.89,mi,,,,,,,PENDING COOP,,,,,,,,,,,,,,,,,,,,,,,,,,,29.90,48,58,0.00,,,,70,29.89,OVC:08 23,29.70,8.00,53,VRB,,3,,,,,,,,,,,,,,,,,,,,,,,,,,,,,,,,,,,,,MET09202/09/20 01:52:02 METAR KCQT 090952Z VRB03KT 8SM OVC023 14/09 A2990 RMK AO2 SLP122 T01440089,FM-15,7,,,,,,,,,,,,,,,,,,,,,,,,,,,,2006-02-03
72287493134,2020-02-09T02:52:00,FM-15,7,,,3.89,mi,,,,,,,PENDING COOP,,,,,,,,,,,,,,,,,,,,,,,,,,,29.87,47,58,0.00,,,,67,29.86,SCT:04 19 OVC:08 26,29.67,8.00,52,100,,5,,,,,,,,,,,,,,,,,,,,,,,,,,,,,,,,,,,,,MET09902/09/20 02:52:02 METAR KCQT 091052Z 10004KT 8SM SCT019 OVC026 14/08 A2987 RMK AO2 SLP113 T01440083,FM-15,7,,,,,,,,,,,,,,,,,,,,,,,,,,,,2006-02-03
72287493134,2020-02-09T03:52:00,FM-15,7,,,3.89,mi,,,,,,,PENDING COOP,,,,,,,,,,,,,,,,,,,,,,,,,,,29.84,47,58,0.00,,+0.06,8,67,29.84,OVC:08 28,29.64,10.00,52,100,,3,,,,,,,,,,,,,,,,,,,,,,,,,,,,,,,,,,,,,MET11102/09/20 03:52:02 METAR KCQT 091152Z 10003KT 10SM OVC028 14/08 A2984 RMK AO2 SLP104 T01440083 10144 20128 58021,FM-15,7,,,,,,,,,,,,,,,,,,,,,,,,,,,,2006-02-03
72287493134,2020-02-09T04:15:00,FM-16,7,,,3.89,mi,,,,,,,PENDING COOP,,,,,,,,,,,,,,,,,,,,,,,,,,,29.84,47,58,,,,,67,,OVC:08 31,29.64,10.00,52,VRB,,3,,,,,,,,,,,,,,,,,,,,,,,,,,,,,,,,,,,,,MET08602/09/20 04:15:02 SPECI KCQT 091215Z VRB03KT 10SM OVC031 14/08 A2984 RMK AO2 T01440083,FM-16,7,,,,,,,,,,,,,,,,,,,,,,,,,,,,2006-02-03
72287493134,2020-02-09T04:34:00,FM-16,7,,,3.89,mi,,,,,,,PENDING COOP,,,,,,,,,,,,,,,,,,,,,,,,,,,29.85,47,58,,,,,67,,BKN:07 22 OVC:08 31,29.65,10.00,52,90,,3,,,,,,,,,,,,,,,,,,,,,,,,,,,,,,,,,,,,,MET09302/09/20 04:34:02 SPECI KCQT 091234Z 09003KT 10SM BKN022 OVC031 14/08 A2985 RMK AO2 T01440083,FM-16,7,,,,,,,,,,,,,,,,,,,,,,,,,,,,2006-02-03
72287493134,2020-02-09T04:52:00,FM-15,7,,,3.89,mi,,,,,,,PENDING COOP,,,,,,,,,,,,,,,,,,,,,,,,,,,29.85,47,58,0.00,,,,67,29.85,OVC:08 21,29.65,10.00,52,90,,3,,,,,,,,,,,,,,,,,,,,,,,,,,,,,,,,,,,,,MET09302/09/20 04:52:02 METAR KCQT 091252Z 09003KT 10SM OVC021 14/08 A2985 RMK AO2 SLP107 T01440083,FM-15,7,,,,,,,,,,,,,,,,,,,,,,,,,,,,2006-02-03
72287493134,2020-02-09T05:52:00,FM-15,7,,,3.89,mi,,,,,,,PENDING COOP,,,,,,,,,,,,,,,,,,,,,,,,,,,29.85,49,57,T,,,,74,29.85,BKN:07 19 BKN:07 28 OVC:08 34,29.65,10.00,53,90,,5,,,,,,,,,,,,,,,,,,,,,,,,,,,,,,,,,,,,,MET12202/09/20 05:52:02 METAR KCQT 091352Z 09004KT 10SM BKN019 BKN028 OVC034 14/09 A2985 RMK AO2 RAB01E28 SLP108 P0000 T01390094,FM-15,7,,,,,,,,,,,,,,,,,,,,,,,,,,,,2006-02-03
72287493134,2020-02-09T06:52:00,FM-15,7,,,3.89,mi,,,,,,,PENDING COOP,,,,,,,,,,,,,,,,,,,,,,,,,,,29.86,47,58,0.00,,-0.02,3,67,29.86,OVC:08 21,29.66,10.00,52,100,,7,,,,,,,,,,,,,,,,,,,,,,,,,,,,,,,,,,,,,MET10502/09/20 06:52:02 METAR KCQT 091452Z 10006KT 10SM OVC021 14/08 A2986 RMK AO2 SLP112 60000 T01440083 53006,FM-15,7,,,,,,,,,,,,,,,,,,,,,,,,,,,,2006-02-03
72287493134,2020-02-09T07:52:00,FM-15,7,,,3.89,mi,,,,,,,PENDING COOP,,,,,,,,,,,,,,,,,,,,,,,,,,,29.86,47,58,0.00,,,,67,29.85,BKN:07 20 OVC:08 26,29.66,10.00,52,100,,6,,,,,,,,,,,,,,,,,,,,,,,,,,,,,,,,,,,,,MET10002/09/20 07:52:02 METAR KCQT 091552Z 10005KT 10SM BKN020 OVC026 14/08 A2986 RMK AO2 SLP109 T01440083,FM-15,7,,,,,,,,,,,,,,,,,,,,,,,,,,,,2006-02-03
72287493134,2020-02-09T08:05:00,FM-16,7,,,3.89,mi,,,,,,,PENDING COOP,,,,,,,,,,,,,,,,,,,,,,,,,,,29.85,47,58,,,,,67,,SCT:04 22 OVC:08 30,29.65,10.00,52,100,,8,,,,,,,,,,,,,,,,,,,,,,,,,,,,,,,,,,,,,MET09302/09/20 08:05:02 SPECI KCQT 091605Z 10007KT 10SM SCT022 OVC030 14/08 A2985 RMK AO2 T01440083,FM-16,7,,,,,,,,,,,,,,,,,,,,,,,,,,,,2006-02-03
72287493134,2020-02-09T08:16:00,FM-16,7,,,3.89,mi,,,,,,,PENDING COOP,,,,,,,,,,,,,,,,,,,,,,,,,,,29.85,47,58,,,,,67,,BKN:07 27 BKN:07 32 OVC:08 75,29.65,9.00,52,70,,6,,,,,,,,,,,,,,,,,,,,,,,,,,,,,,,,,,,,,MET09902/09/20 08:16:02 SPECI KCQT 091616Z 07005KT 9SM BKN027 BKN032 OVC075 14/08 A2985 RMK AO2 T01440083,FM-16,7,,,,,,,,,,,,,,,,,,,,,,,,,,,,2006-02-03
72287493134,2020-02-09T08:29:00,FM-16,7,,,3.89,mi,,,,,,,PENDING COOP,,,,,,,,,,,,,,,,,,,,,,,,,,,29.85,47,58,,,,,67,,SCT:04 29 BKN:07 35 BKN:07 75,29.65,7.00,52,100,,6,,,,,,,,,,,,,,,,,,,,,,,,,,,,,,,,,,,,,MET09902/09/20 08:29:02 SPECI KCQT 091629Z 10005KT 7SM SCT029 BKN035 BKN075 14/08 A2985 RMK AO2 T01440083,FM-16,7,,,,,,,,,,,,,,,,,,,,,,,,,,,,2006-02-03
72287493134,2020-02-09T08:52:00,FM-15,7,,,3.89,mi,,,,,,,PENDING COOP,,,,,,,,,,,,,,,,,,,,,,,,,,,29.84,47,58,0.00,,,,67,29.84,FEW:02 80,29.64,7.00,52,100,,6,,,,,,,,,,,,,,,,,,,,,,,,,,,,,,,,,,,,,MET09202/09/20 08:52:02 METAR KCQT 091652Z 10005KT 7SM FEW080 14/08 A2984 RMK AO2 SLP105 T01440083,FM-15,7,,,,,,,,,,,,,,,,,,,,,,,,,,,,2006-02-03
72287493134,2020-02-09T09:52:00,FM-15,7,,,3.89,mi,,,,,,,PENDING COOP,,,,,,,,,,,,,,,,,,,,,,,,,,,29.84,47,59,T,-RA:02 |RA |RA,+0.02,6,64,29.83,SCT:04 31 BKN:07 80,29.64,7.00,53,90,,9,,,,,,,,,,,,,,,,,,,,,,,,,,,,,,,,,,,,,MET13902/09/20 09:52:02 METAR KCQT 091752Z 09008KT 7SM -RA SCT031 BKN080 15/08 A2984 RMK AO2 RAB45 SLP103 P0000 60000 T01500083 10150 20139 56008,FM-15,7,,,,,,,,,,,,,,,,,,,,,,,,,,,,2006-02-03
72287493134,2020-02-09T10:07:00,FM-16,7,,,3.89,mi,,,,,,,PENDING COOP,,,,,,,,,,,,,,,,,,,,,,,,,,,29.84,47,61,T,,,,60,,BKN:07 22 BKN:07 35 OVC:08 75,29.64,10.00,54,VRB,,7,,,,,,,,,,,,,,,,,,,,,,,,,,,,,,,,,,,,,MET11202/09/20 10:07:02 SPECI KCQT 091807Z VRB06KT 10SM BKN022 BKN035 OVC075 16/08 A2984 RMK AO2 RAE00 P0000 T01610083,FM-16,7,,,,,,,,,,,,,,,,,,,,,,,,,,,,2006-02-03
72287493134,2020-02-09T10:41:00,FM-16,7,,,3.89,mi,,,,,,,PENDING COOP,,,,,,,,,,,,,,,,,,,,,,,,,,,29.84,48,61,T,,,,63,,SCT:04 22 BKN:07 30 BKN:07 95,29.64,10.00,54,VRB,,6,,,,,,,,,,,,,,,,,,,,,,,,,,,,,,,,,,,,,MET11202/09/20 10:41:02 SPECI KCQT 091841Z VRB05KT 10SM SCT022 BKN030 BKN095 16/09 A2984 RMK AO2 RAE00 P0000 T01610089,FM-16,7,,,,,,,,,,,,,,,,,,,,,,,,,,,,2006-02-03
72287493134,2020-02-09T10:44:00,FM-16,7,,,3.89,mi,,,,,,,PENDING COOP,,,,,,,,,,,,,,,,,,,,,,,,,,,29.84,48,61,T,,,,63,,SCT:04 18 BKN:07 23 BKN:07 31,29.64,10.00,54,VRB,,6,,,,,,,,,,,,,,,,,,,,,,,,,,,,,,,,,,,,,MET11202/09/20 10:44:02 SPECI KCQT 091844Z VRB05KT 10SM SCT018 BKN023 BKN031 16/09 A2984 RMK AO2 RAE00 P0000 T01610089,FM-16,7,,,,,,,,,,,,,,,,,,,,,,,,,,,,2006-02-03
72287493134,2020-02-09T10:52:00,FM-15,7,,,3.89,mi,,,,,,,PENDING COOP,,,,,,,,,,,,,,,,,,,,,,,,,,,29.84,48,61,T,,,,63,29.84,SCT:04 18 BKN:07 25 BKN:07 36,29.64,10.00,54,VRB,,5,,,,,,,,,,,,,,,,,,,,,,,,,,,,,,,,,,,,,MET11902/09/20 10:52:02 METAR KCQT 091852Z VRB04KT 10SM SCT018 BKN025 BKN036 16/09 A2984 RMK AO2 RAE00 SLP104 P0000 T01610089,FM-15,7,,,,,,,,,,,,,,,,,,,,,,,,,,,,2006-02-03
72287493134,2020-02-09T11:13:00,FM-16,7,,,3.89,mi,,,,,,,PENDING COOP,,,,,,,,,,,,,,,,,,,,,,,,,,,29.84,48,59,,,,,67,,SCT:04 19 BKN:07 35 BKN:07 43,29.64,10.00,53,VRB,,6,,,,,,,,,,,,,,,,,,,,,,,,,,,,,,,,,,,,,MET10002/09/20 11:13:02 SPECI KCQT 091913Z VRB05KT 10SM SCT019 BKN035 BKN043 15/09 A2984 RMK AO2 T01500089,FM-16,7,,,,,,,,,,,,,,,,,,,,,,,,,,,,2006-02-03
72287493134,2020-02-09T11:52:00,FM-15,7,,,3.89,mi,,,,,,,PENDING COOP,,,,,,,,,,,,,,,,,,,,,,,,,,,29.82,49,60,T,,,,67,29.82,FEW:02 18 BKN:07 55 OVC:08 70,29.62,10.00,54,VRB,,7,,,,,,,,,,,,,,,,,,,,,,,,,,,,,,,,,,,,,MET12202/09/20 11:52:02 METAR KCQT 091952Z VRB06KT 10SM FEW018 BKN055 OVC070 16/09 A2982 RMK AO2 RAB26E42 SLP098 P0000 T01560094,FM-15,7,,,,,,,,,,,,,,,,,,,,,,,,,,,,2006-02-03
72287493134,2020-02-09T12:52:00,FM-15,7,,,3.89,mi,,,,,,,PENDING COOP,,,,,,,,,,,,,,,,,,,,,,,,,,,29.80,48,60,0.00,,+0.04,8,65,29.80,FEW:02 14 BKN:07 42 BKN:07 100,29.60,10.00,54,0,,0,,,,,,,,,,,,,,,,,,,,,,,,,,,,,,,,,,,,,MET11902/09/20 12:52:02 METAR KCQT 092052Z 00000KT 10SM FEW014 BKN042 BKN100 16/09 A2980 RMK AO2 SLP090 60000 T01560089 58014,FM-15,7,,,,,,,,,,,,,,,,,,,,,,,,,,,,2006-02-03
72287493134,2020-02-09T13:26:00,FM-16,7,,,3.89,mi,,,,,,,PENDING COOP,,,,,,,,,,,,,,,,,,,,,,,,,,,29.79,47,60,,,,,62,,SCT:04 21 BKN:07 29 OVC:08 55,29.59,10.00,53,VRB,,5,,,,,,,,,,,,,,,,,,,,,,,,,,,,,,,,,,,,,MET10002/09/20 13:26:02 SPECI KCQT 092126Z VRB04KT 10SM SCT021 BKN029 OVC055 16/08 A2979 RMK AO2 T01560083,FM-16,7,,,,,,,,,,,,,,,,,,,,,,,,,,,,2006-02-03
72287493134,2020-02-09T13:50:00,FM-16,6,,,3.89,mi,,,,,,,PENDING COOP,,,,,,,,,,,,,,,,,,,,,,,,,,,29.79,46,61,,,,,59,,SCT:04 21 BKN:07 33 OVC:08 43,29.59,10.00,53,0,,0,,,,,,,,,,,,,,,,,,,,,,,,,,,,,,,,,,,,,MET09502/09/20 13:50:02 SPECI KCQT 092150Z 00000KT 10SM SCT021 BKN033 OVC043 16/08 A2979 RMK AO2 FIBI,FM-16,6,,,,,,,,,,,,,,,,,,,,,,,,,,,,2006-02-03
72287493134,2020-02-09T13:52:00,FM-15,7,,,3.89,mi,,,,,,,PENDING COOP,,,,,,,,,,,,,,,,,,,,,,,,,,,29.79,47,60,0.00,,,,62,29.79,SCT:04 21 BKN:07 33 OVC:08 43,29.59,10.00,53,0,,0,,,,,,,,,,,,,,,,,,,,,,,,,,,,,,,,,,,,,MET10702/09/20 13:52:02 METAR KCQT 092152Z 00000KT 10SM SCT021 BKN033 OVC043 16/08 A2979 RMK AO2 SLP087 T01560083,FM-15,7,,,,,,,,,,,,,,,,,,,,,,,,,,,,2006-02-03
72287493134,2020-02-09T14:52:00,FM-15,7,,,3.89,mi,,,,,,,PENDING COOP,,,,,,,,,,,,,,,,,,,,,,,,,,,29.77,47,60,0.00,,,,62,29.77,FEW:02 25 SCT:04 39 OVC:08 85,29.57,10.00,53,0,,0,,,,,,,,,,,,,,,,,,,,,,,,,,,,,,,,,,,,,MET10702/09/20 14:52:02 METAR KCQT 092252Z 00000KT 10SM FEW025 SCT039 OVC085 16/08 A2977 RMK AO2 SLP080 T01560083,FM-15,7,,,,,,,,,,,,,,,,,,,,,,,,,,,,2006-02-03
72287493134,2020-02-09T15:52:00,FM-15,7,,,3.89,mi,,,,,,,PENDING COOP,,,,,,,,,,,,,,,,,,,,,,,,,,,29.78,44,59,0.00,,+0.02,5,58,29.78,OVC:08 100,29.58,10.00,51,VRB,,3,,,,,,,,,,,,,,,,,,,,,,,,,,,,,,,,,,,,,MET11702/09/20 15:52:02 METAR KCQT 092352Z VRB03KT 10SM OVC100 15/07 A2978 RMK AO2 SLP083 60000 T01500067 10172 20144 55006,FM-15,7,,,,,,,,,,,,,,,,,,,,,,,,,,,,2006-02-03
72287493134,2020-02-09T16:52:00,FM-15,7,,,3.89,mi,,,,,,,PENDING COOP,,,,,,,,,,,,,,,,,,,,,,,,,,,29.78,43,59,0.00,,,,56,29.78,OVC:08 100,29.58,10.00,51,120,,3,,,,,,,,,,,,,,,,,,,,,,,,,,,,,,,,,,,,,MET09302/09/20 16:52:01 METAR KCQT 100052Z 12003KT 10SM OVC100 15/06 A2978 RMK AO2 SLP084 T01500061,FM-15,7,,,,,,,,,,,,,,,,,,,,,,,,,,,,2006-02-03
72287493134,2020-02-09T17:52:00,FM-15,7,,,3.89,mi,,,,,,,PENDING COOP,,,,,,,,,,,,,,,,,,,,,,,,,,,29.79,43,59,0.00,,,,56,29.79,OVC:08 100,29.59,10.00,51,0,,0,,,,,,,,,,,,,,,,,,,,,,,,,,,,,,,,,,,,,MET09302/09/20 17:52:01 METAR KCQT 100152Z 00000KT 10SM OVC100 15/06 A2979 RMK AO2 SLP087 T01500061,FM-15,7,,,,,,,,,,,,,,,,,,,,,,,,,,,,2006-02-03
72287493134,2020-02-09T18:52:00,FM-15,7,,,3.89,mi,,,,,,,PENDING COOP,,,,,,,,,,,,,,,,,,,,,,,,,,,29.81,42,58,0.00,,-0.03,3,56,29.80,OVC:08 100,29.61,10.00,50,0,,0,,,,,,,,,,,,,,,,,,,,,,,,,,,,,,,,,,,,,MET09902/09/20 18:52:01 METAR KCQT 100252Z 00000KT 10SM OVC100 14/06 A2981 RMK AO2 SLP093 T01440056 53010,FM-15,7,,,,,,,,,,,,,,,,,,,,,,,,,,,,2006-02-03
72287493134,2020-02-09T19:52:00,FM-15,7,,,3.89,mi,,,,,,,PENDING COOP,,,,,,,,,,,,,,,,,,,,,,,,,,,29.81,43,58,0.00,,,,58,29.81,FEW:02 80 BKN:07 100 BKN:07 120,29.61,10.00,50,0,,0,,,,,,,,,,,,,,,,,,,,,,,,,,,,,,,,,,,,,MET10702/09/20 19:52:01 METAR KCQT 100352Z 00000KT 10SM FEW080 BKN100 BKN120 14/06 A2981 RMK AO2 SLP094 T01440061,FM-15,7,,,,,,,,,,,,,,,,,,,,,,,,,,,,2006-02-03
72287493134,2020-02-09T20:52:00,FM-15,7,,,3.89,mi,,,,,,,PENDING COOP,,,,,,,,,,,,,,,,,,,,,,,,,,,29.82,43,57,0.00,,,,60,29.81,FEW:02 65 SCT:04 75 OVC:08 100,29.62,10.00,50,0,,0,,,,,,,,,,,,,,,,,,,,,,,,,,,,,,,,,,,,,MET10702/09/20 20:52:02 METAR KCQT 100452Z 00000KT 10SM FEW065 SCT075 OVC100 14/06 A2982 RMK AO2 SLP096 T01390061,FM-15,7,,,,,,,,,,,,,,,,,,,,,,,,,,,,2006-02-03
72287493134,2020-02-09T21:52:00,FM-15,7,,,3.89,mi,,,,,,,PENDING COOP,,,,,,,,,,,,,,,,,,,,,,,,,,,29.81,45,56,0.00,,-0.01,0,67,29.81,OVC:08 110,29.61,10.00,50,0,,0,,,,,,,,,,,,,,,,,,,,,,,,,,,,,,,,,,,,,MET11102/09/20 21:52:02 METAR KCQT 100552Z 00000KT 10SM OVC110 13/07 A2981 RMK AO2 SLP095 T01330072 10150 20133 50002,FM-15,7,,,,,,,,,,,,,,,,,,,,,,,,,,,,2006-02-03
72287493134,2020-02-09T22:52:00,FM-15,7,,,3.89,mi,,,,,,,PENDING COOP,,,,,,,,,,,,,,,,,,,,,,,,,,,29.81,44,56,0.00,,,,65,29.80,BKN:07 110,29.61,10.00,50,0,,0,,,,,,,,,,,,,,,,,,,,,,,,,,,,,,,,,,,,,MET09302/09/20 22:52:02 METAR KCQT 100652Z 00000KT 10SM BKN110 13/07 A2981 RMK AO2 SLP093 T01330067,FM-15,7,,,,,,,,,,,,,,,,,,,,,,,,,,,,2006-02-03
72287493134,2020-02-09T23:52:00,FM-15,7,,,3.89,mi,,,,,,,PENDING COOP,,,,,,,,,,,,,,,,,,,,,,,,,,,29.81,44,54,0.00,,,,69,29.80,BKN:07 110,29.61,10.00,49,0,,0,,,,,,,,,,,,,,,,,,,,,,,,,,,,,,,,,,,,,MET10302/09/20 23:52:02 METAR KCQT 100752Z 00000KT 10SM BKN110 12/07 A2981 RMK AO2 SLP092 T01220067 401720122,FM-15,7,,,,,,,,,,,,,,,,,,,,,,,,,,,,2006-02-03
72287493134,2020-02-09T23:59:00,SOD  ,6,,,3.89,mi,,,,,,,PENDING COOP,,,,,59,,,29.62,,2.9,0,0.9,6,63,54,90,17,T,0,0.0,100,10,RA,,,,,,,,,,,,,,,,,,,,,,,,,,,,,,,,,,,,,,,,,,,,,,,,,,,,,,,,SOD75624 HR PRECIPITATION (IN):    T SNOW DEPTH (IN):0     24 HR SNOWFALL (IN):0.0  WEATHER(CODE):8  24 HR MAX TEMP (F): 6324 HR MIN TEMP (F): 54AVERAGE STATION PRESSURE:29.615 MINIMUM SEA LEVEL PRESSURE:29.77 TIME OF OCCURRENCE:1604 PEAK WIND SPEED (MPH): 17 PEAK WIND DIR (DEG): 90 PEAK WIND TIME (LST):      FASTEST 2MIN SPEED (MPH): 10FASTEST 2MIN DIR (DEG):100 FASTEST 2MIN TIME (LST):     AVERAGE WIND SPEED (MPH): 2.9 24 HR AVG TEMP (F): 59DEPART FROM NORMAL:  0  HEATING DEGREE DAYS:  6 COOLING DEGREE DAYS:  0 LATEST DAY MAX TEMP (0700-1900 LST):63  LATEST NIGHT MIN TEMP(1900-0800 LST):55 HOURLY INCREMENTAL PRECIPITATION VALUES (IN):.00 0.00 0.00 0.00 0.00 T    0.00 0.00 0.00 T    T    T    0.00 0.00 0.00 0.00 0.00 0.00 0.00 0.00 0.00 0.00 0.00 0.00,SOD  ,6,,,,,,,,,,,,,,,,,,,,,,,,,644,1731,,2006-02-03
72287493134,2020-02-10T00:52:00,FM-15,7,,,3.89,mi,,,,,,,PENDING COOP,,,,,,,,,,,,,,,,,,,,,,,,,,,29.80,41,54,0.00,,+0.01,8,62,29.80,FEW:02 100,29.60,10.00,48,0,,0,,,,,,,,,,,,,,,,,,,,,,,,,,,,,,,,,,,,,MET09902/10/20 00:52:02 METAR KCQT 100852Z 00000KT 10SM FEW100 12/05 A2980 RMK AO2 SLP090 T01220050 58005,FM-15,7,,,,,,,,,,,,,,,,,,,,,,,,,,,,2006-02-03
72287493134,2020-02-10T01:52:00,FM-15,7,,,3.89,mi,,,,,,,PENDING COOP,,,,,,,,,,,,,,,,,,,,,,,,,,,29.80,40,52,0.00,,,,64,29.80,FEW:02 100,29.60,10.00,46,0,,0,,,,,,,,,,,,,,,,,,,,,,,,,,,,,,,,,,,,,MET09302/10/20 01:52:02 METAR KCQT 100952Z 00000KT 10SM FEW100 11/04 A2980 RMK AO2 SLP091 T01110044,FM-15,7,,,,,,,,,,,,,,,,,,,,,,,,,,,,2006-02-03
72287493134,2020-02-10T02:52:00,FM-15,7,,,3.89,mi,,,,,,,PENDING COOP,,,,,,,,,,,,,,,,,,,,,,,,,,,29.80,41,53,0.00,,,,64,29.80,BKN:07 110,29.60,10.00,47,0,,0,,,,,,,,,,,,,,,,,,,,,,,,,,,,,,,,,,,,,MET09302/10/20 02:52:02 METAR KCQT 101052Z 00000KT 10SM BKN110 12/05 A2980 RMK AO2 SLP091 T01170050,FM-15,7,,,,,,,,,,,,,,,,,,,,,,,,,,,,2006-02-03
72287493134,2020-02-10T03:52:00,FM-15,7,,,3.89,mi,,,,,,,PENDING COOP,,,,,,,,,,,,,,,,,,,,,,,,,,,29.80,38,54,0.00,,+0.00,8,55,29.79,BKN:07 120,29.60,10.00,46,VRB,,3,,,,,,,,,,,,,,,,,,,,,,,,,,,,,,,,,,,,,MET11102/10/20 03:52:02 METAR KCQT 101152Z VRB03KT 10SM BKN120 12/03 A2980 RMK AO2 SLP089 T01220033 10133 20111 58001,FM-15,7,,,,,,,,,,,,,,,,,,,,,,,,,,,,2006-02-03
72287493134,2020-02-10T04:52:00,FM-15,7,,,3.89,mi,,,,,,,PENDING COOP,,,,,,,,,,,,,,,,,,,,,,,,,,,29.81,29,60,0.00,,,,31,29.81,OVC:08 110,29.61,10.00,46,VRB,,5,,,,,,,,,,,,,,,,,,,,,,,,,,,,,,,,,,,,,MET09402/10/20 04:52:02 METAR KCQT 101252Z VRB04KT 10SM OVC110 16/M02 A2981 RMK AO2 SLP094 T01561017,FM-15,7,,,,,,,,,,,,,,,,,,,,,,,,,,,,2006-02-03
72287493134,2020-02-10T05:52:00,FM-15,7,,,3.89,mi,,,,,,,PENDING COOP,,,,,,,,,,,,,,,,,,,,,,,,,,,29.81,39,56,0.00,,,,53,29.81,SCT:04 80 BKN:07 90 OVC:08 110,29.61,10.00,48,0,,0,,,,,,,,,,,,,,,,,,,,,,,,,,,,,,,,,,,,,MET11102/10/20 05:52:02 METAR KCQT 101352Z 00000KT 10SM SCT080 BKN090 OVC110 13/04 A2981 RMK AO2 SLP094 T01330039 RTX,FM-15,7,,,,,,,,,,,,,,,,,,,,,,,,,,,,2006-02-03
72287493134,2020-02-10T06:52:00,FM-15,7,,,3.89,mi,,,,,,,PENDING COOP,,,,,,,,,,,,,,,,,,,,,,,,,,,29.82,,61,0.00,,-0.02,1,,29.82,CLR:00,29.62,10.00,,VRB,,7,,,,,,,,,,,,,,,,,,,,,,,,,,,,,,,,,,,,,MET09702/10/20 06:52:02 METAR KCQT 101452Z VRB06KT 10SM CLR 16/M04 A2982 RMK AO2 SLP097 T01611044 51007,FM-15,7,,,,,,,,,,,,,,,,,,,,,,,,,,,,2006-02-03
72287493134,2020-02-10T07:52:00,FM-15,7,,,3.89,mi,,,,,,,PENDING COOP,,,,,,,,,,,,,,,,,,,,,,,,,,,29.83,33,59,0.00,,,,38,29.83,CLR:00,29.63,10.00,47,110,,5,,,,,,,,,,,,,,,,,,,,,,,,,,,,,,,,,,,,,MET09002/10/20 07:52:02 METAR KCQT 101552Z 11004KT 10SM CLR 15/01 A2983 RMK AO2 SLP101 T01500006,FM-15,7,,,,,,,,,,,,,,,,,,,,,,,,,,,,2006-02-03
72287493134,2020-02-10T08:52:00,FM-15,7,,,3.89,mi,,,,,,,PENDING COOP,,,,,,,,,,,,,,,,,,,,,,,,,,,29.84,44,61,0.00,,,,54,29.84,CLR:00,29.64,10.00,52,0,,0,,,,,,,,,,,,,,,,,,,,,,,,,,,,,,,,,,,,,MET09002/10/20 08:52:02 METAR KCQT 101652Z 00000KT 10SM CLR 16/07 A2984 RMK AO2 SLP104 T01610067,FM-15,7,,,,,,,,,,,,,,,,,,,,,,,,,,,,2006-02-03
72287493134,2020-02-10T09:52:00,FM-15,7,,,3.89,mi,,,,,,,PENDING COOP,,,,,,,,,,,,,,,,,,,,,,,,,,,29.86,36,67,0.00,,-0.04,3,32,29.85,CLR:00,29.66,10.00,52,90,,3,,,,,,,,,,,,,,,,,,,,,,,,,,,,,,,,,,,,,MET10802/10/20 09:52:02 METAR KCQT 101752Z 09003KT 10SM CLR 19/02 A2986 RMK AO2 SLP109 T01940022 10194 20128 53013,FM-15,7,,,,,,,,,,,,,,,,,,,,,,,,,,,,2006-02-03
72287493134,2020-02-10T10:52:00,FM-15,7,,,3.89,mi,,,,,,,PENDING COOP,,,,,,,,,,,,,,,,,,,,,,,,,,,29.85,28,70,0.00,,,,21,29.85,CLR:00,29.65,10.00,50,VRB,,3,,,,,,,,,,,,,,,,,,,,,,,,,,,,,,,,,,,,,MET09902/10/20 10:52:02 METAR KCQT 101852Z VRB03KT 10SM CLR 21/M02 A2985 RMK AO2 SLP108 T02111022 PWINO $,FM-15,7,,,,,,,,,,,,,,,,,,,,,,,,,,,,2006-02-03
72287493134,2020-02-10T11:09:00,FM-16,7,,,3.89,mi,,,,,,,PENDING COOP,,,,,,,,,,,,,,,,,,,,,,,,,,,29.85,28,71,,HZ:7 |FU |HZ,,,20,,CLR:00,29.65,1.75,51,0,,0,,,,,,,,,,,,,,,,,,,,,,,,,,,,,,,,,,,,,MET09002/10/20 11:09:02 SPECI KCQT 101909Z 00000KT 1 3/4SM HZ CLR 22/M02 A2985 RMK AO2 T02171022,FM-16,7,,,,,,,,,,,,,,,,,,,,,,,,,,,,2006-02-03
72287493134,2020-02-10T11:20:00,FM-16,7,,,3.89,mi,,,,,,,PENDING COOP,,,,,,,,,,,,,,,,,,,,,,,,,,,29.85,28,72,,,,,19,,CLR:00,29.65,9.00,51,0,,0,,,,,,,,,,,,,,,,,,,,,,,,,,,,,,,,,,,,,MET08302/10/20 11:20:02 SPECI KCQT 101920Z 00000KT 9SM CLR 22/M02 A2985 RMK AO2 T02221022,FM-16,7,,,,,,,,,,,,,,,,,,,,,,,,,,,,2006-02-03
72287493134,2020-02-10T11:52:00,FM-15,7,,,3.89,mi,,,,,,,PENDING COOP,,,,,,,,,,,,,,,,,,,,,,,,,,,29.84,30,71,0.00,,,,22,29.83,CLR:00,29.64,10.00,51,0,,0,,,,,,,,,,,,,,,,,,,,,,,,,,,,,,,,,,,,,MET09102/10/20 11:52:02 METAR KCQT 101952Z 00000KT 10SM CLR 22/M01 A2984 RMK AO2 SLP102 T02171011,FM-15,7,,,,,,,,,,,,,,,,,,,,,,,,,,,,2006-02-03
72287493134,2020-02-10T12:52:00,FM-15,7,,,3.89,mi,,,,,,,PENDING COOP,,,,,,,,,,,,,,,,,,,,,,,,,,,29.83,31,72,0.00,,+0.03,8,22,29.82,CLR:00,29.63,10.00,52,0,,0,,,,,,,,,,,,,,,,,,,,,,,,,,,,,,,,,,,,,MET09702/10/20 12:52:02 METAR KCQT 102052Z 00000KT 10SM CLR 22/M01 A2983 RMK AO2 SLP098 T02221006 58011,FM-15,7,,,,,,,,,,,,,,,,,,,,,,,,,,,,2006-02-03
72287493134,2020-02-10T13:52:00,FM-15,7,,,3.89,mi,,,,,,,PENDING COOP,,,,,,,,,,,,,,,,,,,,,,,,,,,29.82,37,72,0.00,,,,28,29.82,CLR:00,29.62,10.00,54,0,,0,,,,,,,,,,,,,,,,,,,,,,,,,,,,,,,,,,,,,MET09002/10/20 13:52:02 METAR KCQT 102152Z 00000KT 10SM CLR 22/03 A2982 RMK AO2 SLP097 T02220028,FM-15,7,,,,,,,,,,,,,,,,,,,,,,,,,,,,2006-02-03
72287493134,2020-02-10T14:52:00,FM-15,7,,,3.89,mi,,,,,,,PENDING COOP,,,,,,,,,,,,,,,,,,,,,,,,,,,29.81,35,73,0.00,,,,25,29.81,CLR:00,29.61,10.00,54,VRB,,3,,,,,,,,,,,,,,,,,,,,,,,,,,,,,,,,,,,,,MET09002/10/20 14:52:02 METAR KCQT 102252Z VRB03KT 10SM CLR 23/02 A2981 RMK AO2 SLP094 T02280017,FM-15,7,,,,,,,,,,,,,,,,,,,,,,,,,,,,2006-02-03
72287493134,2020-02-10T15:52:00,FM-15,7,,,3.89,mi,,,,,,,PENDING COOP,,,,,,,,,,,,,,,,,,,,,,,,,,,29.81,30,74,0.00,,+0.01,6,20,29.81,CLR:00,29.61,10.00,53,VRB,,7,,,,,,,,,,,,,,,,,,,,,,,,,,,,,,,,,,,,,MET10902/10/20 15:52:02 METAR KCQT 102352Z VRB06KT 10SM CLR 23/M01 A2981 RMK AO2 SLP094 T02331011 10233 20194 56004,FM-15,7,,,,,,,,,,,,,,,,,,,,,,,,,,,,2006-02-03
72287493134,2020-02-10T16:52:00,FM-15,7,,,3.89,mi,,,,,,,PENDING COOP,,,,,,,,,,,,,,,,,,,,,,,,,,,29.83,24,75,0.00,,,,15,29.82,CLR:00,29.63,10.00,52,10,,9,,,,,,,,,,,,,,,,,,,,,,,,,,,,,,,,,,,,,MET09102/10/20 16:52:01 METAR KCQT 110052Z 01008KT 10SM CLR 24/M04 A2983 RMK AO2 SLP099 T02391044,FM-15,7,,,,,,,,,,,,,,,,,,,,,,,,,,,,2006-02-03
72287493134,2020-02-10T17:52:00,FM-15,7,,,3.89,mi,,,,,,,PENDING COOP,,,,,,,,,,,,,,,,,,,,,,,,,,,29.84,25,74,0.00,,,,16,29.84,CLR:00,29.64,10.00,51,30,,5,,,,,,,,,,,,,,,,,,,,,,,,,,,,,,,,,,,,,MET09102/10/20 17:52:01 METAR KCQT 110152Z 03004KT 10SM CLR 23/M04 A2984 RMK AO2 SLP104 T02331039,FM-15,7,,,,,,,,,,,,,,,,,,,,,,,,,,,,2006-02-03
72287493134,2020-02-10T18:52:00,FM-15,7,,,3.89,mi,,,,,,,PENDING COOP,,,,,,,,,,,,,,,,,,,,,,,,,,,29.85,23,73,0.00,,-0.04,1,15,29.85,CLR:00,29.65,10.00,50,VRB,,6,,,,,,,,,,,,,,,,,,,,,,,,,,,,,,,,,,,,,MET09702/10/20 18:52:01 METAR KCQT 110252Z VRB05KT 10SM CLR 23/M05 A2985 RMK AO2 SLP108 T02281050 51014,FM-15,7,,,,,,,,,,,,,,,,,,,,,,,,,,,,2006-02-03
72287493134,2020-02-10T19:52:00,FM-15,7,,,3.89,mi,,,,,,,PENDING COOP,,,,,,,,,,,,,,,,,,,,,,,,,,,29.87,26,69,0.00,,,,20,29.86,CLR:00,29.67,10.00,49,0,,0,,,,,,,,,,,,,,,,,,,,,,,,,,,,,,,,,,,,,MET09102/10/20 19:52:01 METAR KCQT 110352Z 00000KT 10SM CLR 21/M03 A2987 RMK AO2 SLP112 T02061033,FM-15,7,,,,,,,,,,,,,,,,,,,,,,,,,,,,2006-02-03
72287493134,2020-02-10T20:52:00,FM-15,7,,,3.89,mi,,,,,,,PENDING COOP,,,,,,,,,,,,,,,,,,,,,,,,,,,29.87,28,66,0.00,,,,24,29.86,CLR:00,29.67,10.00,49,0,,0,,,,,,,,,,,,,,,,,,,,,,,,,,,,,,,,,,,,,MET09102/10/20 20:52:01 METAR KCQT 110452Z 00000KT 10SM CLR 19/M02 A2987 RMK AO2 SLP112 T01891022,FM-15,7,,,,,,,,,,,,,,,,,,,,,,,,,,,,2006-02-03
72287493134,2020-02-10T21:52:00,FM-15,7,,,3.89,mi,,,,,,,PENDING COOP,,,,,,,,,,,,,,,,,,,,,,,,,,,29.89,25,63,0.00,,-0.03,3,24,29.88,CLR:00,29.69,10.00,46,0,,0,,,,,,,,,,,,,,,,,,,,,,,,,,,,,,,,,,,,,MET10902/10/20 21:52:01 METAR KCQT 110552Z 00000KT 10SM CLR 17/M04 A2989 RMK AO2 SLP119 T01721039 10244 20172 53011,FM-15,7,,,,,,,,,,,,,,,,,,,,,,,,,,,,2006-02-03
72287493134,2020-02-10T22:52:00,FM-15,7,,,3.89,mi,,,,,,,PENDING COOP,,,,,,,,,,,,,,,,,,,,,,,,,,,29.89,30,60,0.00,,,,32,29.89,CLR:00,29.69,10.00,46,0,,0,,,,,,,,,,,,,,,,,,,,,,,,,,,,,,,,,,,,,MET09102/10/20 22:52:01 METAR KCQT 110652Z 00000KT 10SM CLR 16/M01 A2989 RMK AO2 SLP121 T01561011,FM-15,7,,,,,,,,,,,,,,,,,,,,,,,,,,,,2006-02-03
72287493134,2020-02-10T23:52:00,FM-15,7,,,3.89,mi,,,,,,,PENDING COOP,,,,,,,,,,,,,,,,,,,,,,,,,,,29.90,37,58,0.00,,,,46,29.90,CLR:00,29.70,10.00,48,0,,0,,,,,,,,,,,,,,,,,,,,,,,,,,,,,,,,,,,,,MET10002/10/20 23:52:01 METAR KCQT 110752Z 00000KT 10SM CLR 14/03 A2990 RMK AO2 SLP125 T01440028 402440111,FM-15,7,,,,,,,,,,,,,,,,,,,,,,,,,,,,2006-02-03
72287493134,2020-02-10T23:59:00,SOD  ,6,,,3.89,mi,,,,,,,PENDING COOP,,,,,64,,,29.64,,2.3,0,5.9,1,76,52,350,22,0.00,0,0.0,360,12,HZ,,,,,,,,,,,,,,,,,,,,,,,,,,,,,,,,,,,,,,,,,,,,,,,,,,,,,,,,SOD76024 HR PRECIPITATION (IN): 0.00 SNOW DEPTH (IN):0     24 HR SNOWFALL (IN):0.0  WEATHER(CODE):8  24 HR MAX TEMP (F): 7624 HR MIN TEMP (F): 52AVERAGE STATION PRESSURE(D):29.640 MINIMUM SEA LEVEL PRESSURE:29.79 TIME OF OCCURRENCE:0414 PEAK WIND SPEED (MPH): 22 PEAK WIND DIR (DEG):350 PEAK WIND TIME (LST):      FASTEST 2MIN SPEED (MPH): 12FASTEST 2MIN DIR (DEG):360 FASTEST 2MIN TIME (LST):     AVERAGE WIND SPEED (MPH): 2.3 24 HR AVG TEMP (F): 64DEPART FROM NORMAL:  5  HEATING DEGREE DAYS:  1 COOLING DEGREE DAYS:  0 LATEST DAY MAX TEMP (0700-1900 LST): 76 LATEST NIGHT MIN TEMP(1900-0800 LST):52 HOURLY INCREMENTAL PRECIPITATION VALUES (IN):0.00 0.00 0.00 0.00 0.00 0.00 0.00 0.00 0.00 0.00 0.00 0.00 0.00 0.00 0.00 0.00 0.00 0.00 0.00 0.00 0.00 0.00 0.00 0.00,SOD  ,6,,,,,,,,,,,,,,,,,,,,,,,,,643,1732,,2006-02-03
72287493134,2020-02-11T00:52:00,FM-15,7,,,3.89,mi,,,,,,,PENDING COOP,,,,,,,,,,,,,,,,,,,,,,,,,,,29.90,37,56,0.00,,-0.01,0,49,29.90,CLR:00,29.70,10.00,47,0,,0,,,,,,,,,,,,,,,,,,,,,,,,,,,,,,,,,,,,,MET09602/11/20 00:52:02 METAR KCQT 110852Z 00000KT 10SM CLR 13/03 A2990 RMK AO2 SLP124 T01330028 50005,FM-15,7,,,,,,,,,,,,,,,,,,,,,,,,,,,,2006-02-03
72287493134,2020-02-11T01:52:00,FM-15,7,,,3.89,mi,,,,,,,PENDING COOP,,,,,,,,,,,,,,,,,,,,,,,,,,,29.91,39,57,0.00,,,,51,29.90,CLR:00,29.71,10.00,48,0,,0,,,,,,,,,,,,,,,,,,,,,,,,,,,,,,,,,,,,,MET09002/11/20 01:52:02 METAR KCQT 110952Z 00000KT 10SM CLR 14/04 A2991 RMK AO2 SLP125 T01390039,FM-15,7,,,,,,,,,,,,,,,,,,,,,,,,,,,,2006-02-03
72287493134,2020-02-11T02:52:00,FM-15,7,,,3.89,mi,,,,,,,PENDING COOP,,,,,,,,,,,,,,,,,,,,,,,,,,,29.92,45,56,0.00,,,,67,29.91,CLR:00,29.72,10.00,50,0,,0,,,,,,,,,,,,,,,,,,,,,,,,,,,,,,,,,,,,,MET09002/11/20 02:52:02 METAR KCQT 111052Z 00000KT 10SM CLR 13/07 A2992 RMK AO2 SLP128 T01330072,FM-15,7,,,,,,,,,,,,,,,,,,,,,,,,,,,,2006-02-03
72287493134,2020-02-11T03:52:00,FM-15,7,,,3.89,mi,,,,,,,PENDING COOP,,,,,,,,,,,,,,,,,,,,,,,,,,,29.93,44,53,0.00,,-0.03,3,72,29.92,CLR:00,29.73,10.00,49,0,,0,,,,,,,,,,,,,,,,,,,,,,,,,,,,,,,,,,,,,MET10802/11/20 03:52:02 METAR KCQT 111152Z 00000KT 10SM CLR 12/07 A2993 RMK AO2 SLP133 T01170067 10172 20117 53009,FM-15,7,,,,,,,,,,,,,,,,,,,,,,,,,,,,2006-02-03
72287493134,2020-02-11T04:52:00,FM-15,7,,,3.89,mi,,,,,,,PENDING COOP,,,,,,,,,,,,,,,,,,,,,,,,,,,29.94,47,55,0.00,,,,74,29.93,CLR:00,29.74,10.00,51,0,,0,,,,,,,,,,,,,,,,,,,,,,,,,,,,,,,,,,,,,MET09002/11/20 04:52:02 METAR KCQT 111252Z 00000KT 10SM CLR 13/08 A2994 RMK AO2 SLP137 T01280083,FM-15,7,,,,,,,,,,,,,,,,,,,,,,,,,,,,2006-02-03
72287493134,2020-02-11T05:52:00,FM-15,7,,,3.89,mi,,,,,,,PENDING COOP,,,,,,,,,,,,,,,,,,,,,,,,,,,29.95,45,53,0.00,,,,74,29.95,CLR:00,29.75,10.00,49,0,,0,,,,,,,,,,,,,,,,,,,,,,,,,,,,,,,,,,,,,MET09402/11/20 05:52:02 METAR KCQT 111352Z 00000KT 10SM CLR 12/07 A2995 RMK AO2 SLP142 T01170072 RTX,FM-15,7,,,,,,,,,,,,,,,,,,,,,,,,,,,,2006-02-03
72287493134,2020-02-11T06:52:00,FM-15,7,,,3.89,mi,,,,,,,PENDING COOP,,,,,,,,,,,,,,,,,,,,,,,,,,,29.97,44,54,0.00,,-0.04,3,69,29.96,CLR:00,29.77,10.00,49,0,,0,,,,,,,,,,,,,,,,,,,,,,,,,,,,,,,,,,,,,MET09602/11/20 06:52:02 METAR KCQT 111452Z 00000KT 10SM CLR 12/07 A2997 RMK AO2 SLP147 T01220067 53014,FM-15,7,,,,,,,,,,,,,,,,,,,,,,,,,,,,2006-02-03
72287493134,2020-02-11T07:52:00,FM-15,7,,,3.89,mi,,,,,,,PENDING COOP,,,,,,,,,,,,,,,,,,,,,,,,,,,29.99,38,60,0.00,,,,44,29.98,CLR:00,29.79,10.00,49,0,,0,,,,,,,,,,,,,,,,,,,,,,,,,,,,,,,,,,,,,MET09002/11/20 07:52:02 METAR KCQT 111552Z 00000KT 10SM CLR 16/03 A2999 RMK AO2 SLP154 T01560033,FM-15,7,,,,,,,,,,,,,,,,,,,,,,,,,,,,2006-02-03
72287493134,2020-02-11T08:52:00,FM-15,7,,,3.89,mi,,,,,,,PENDING COOP,,,,,,,,,,,,,,,,,,,,,,,,,,,30.01,40,64,0.00,,,,41,30.00,CLR:00,29.81,10.00,52,0,,0,,,,,,,,,,,,,,,,,,,,,,,,,,,,,,,,,,,,,MET09002/11/20 08:52:02 METAR KCQT 111652Z 00000KT 10SM CLR 18/04 A3001 RMK AO2 SLP160 T01780044,FM-15,7,,,,,,,,,,,,,,,,,,,,,,,,,,,,2006-02-03
72287493134,2020-02-11T09:52:00,FM-15,7,,,3.89,mi,,,,,,,PENDING COOP,,,,,,,,,,,,,,,,,,,,,,,,,,,30.02,27,68,0.00,,-0.05,1,21,30.01,CLR:00,29.82,10.00,49,0,,0,,,,,,,,,,,,,,,,,,,,,,,,,,,,,,,,,,,,,MET10902/11/20 09:52:02 METAR KCQT 111752Z 00000KT 10SM CLR 20/M03 A3002 RMK AO2 SLP163 T02001028 10200 20111 51016,FM-15,7,,,,,,,,,,,,,,,,,,,,,,,,,,,,2006-02-03
72287493134,2020-02-11T10:52:00,FM-15,7,,,3.89,mi,,,,,,,PENDING COOP,,,,,,,,,,,,,,,,,,,,,,,,,,,30.02,28,71,0.00,,,,20,30.01,CLR:00,29.82,10.00,51,0,,0,,,,,,,,,,,,,,,,,,,,,,,,,,,,,,,,,,,,,MET09102/11/20 10:52:02 METAR KCQT 111852Z 00000KT 10SM CLR 22/M02 A3002 RMK AO2 SLP164 T02171022,FM-15,7,,,,,,,,,,,,,,,,,,,,,,,,,,,,2006-02-03
72287493134,2020-02-11T11:52:00,FM-15,7,,,3.89,mi,,,,,,,PENDING COOP,,,,,,,,,,,,,,,,,,,,,,,,,,,30.00,25,73,0.00,,,,17,30.00,CLR:00,29.80,10.00,51,0,,0,,,,,,,,,,,,,,,,,,,,,,,,,,,,,,,,,,,,,MET09102/11/20 11:52:02 METAR KCQT 111952Z 00000KT 10SM CLR 23/M04 A3000 RMK AO2 SLP159 T02281039,FM-15,7,,,,,,,,,,,,,,,,,,,,,,,,,,,,2006-02-03
72287493134,2020-02-11T12:52:00,FM-15,7,,,3.89,mi,,,,,,,PENDING COOP,,,,,,,,,,,,,,,,,,,,,,,,,,,29.99,25,74,0.00,,+0.03,8,16,29.98,CLR:00,29.79,10.00,51,VRB,,3,,,,,,,,,,,,,,,,,,,,,,,,,,,,,,,,,,,,,MET09702/11/20 12:52:02 METAR KCQT 112052Z VRB03KT 10SM CLR 23/M04 A2999 RMK AO2 SLP153 T02331039 58009,FM-15,7,,,,,,,,,,,,,,,,,,,,,,,,,,,,2006-02-03
72287493134,2020-02-11T13:52:00,FM-15,6,,,3.89,mi,,,,,,,PENDING COOP,,,,,,,,,,,,,,,,,,,,,,,,,,,29.98,25,74,0.00,,,,16,29.98,CLR:00,29.78,10.00,51,,,,,,,,,,,,,,,,,,,,,,,,,,,,,,,,,,,,,,,,MET09102/11/20 13:52:02 METAR KCQT 112152Z      KT 10SM CLR 23/M04 A2998 RMK AO2 SLP151 T02331039,FM-15,6,,,,,,,,,,,,,,,,,,,,,,,,,,,,2006-02-03
72287493134,2020-02-11T14:52:00,FM-15,7,,,3.89,mi,,,,,,,PENDING COOP,,,,,,,,,,,,,,,,,,,,,,,,,,,29.97,21,72,0.00,,,,15,29.96,CLR:00,29.77,10.00,50,250,,5,,,,,,,,,,,,,,,,,,,,,,,,,,,,,,,,,,,,,MET09102/11/20 14:52:02 METAR KCQT 112252Z 25004KT 10SM CLR 22/M06 A2997 RMK AO2 SLP147 T02221061,FM-15,7,,,,,,,,,,,,,,,,,,,,,,,,,,,,2006-02-03
72287493134,2020-02-11T15:52:00,FM-15,7,,,3.89,mi,,,,,,,PENDING COOP,,,,,,,,,,,,,,,,,,,,,,,,,,,29.97,25,71,0.00,,+0.02,6,18,29.96,CLR:00,29.77,10.00,50,0,,0,,,,,,,,,,,,,,,,,,,,,,,,,,,,,,,,,,,,,MET10902/11/20 15:52:02 METAR KCQT 112352Z 00000KT 10SM CLR 22/M04 A2997 RMK AO2 SLP147 T02171039 10233 20206 56007,FM-15,7,,,,,,,,,,,,,,,,,,,,,,,,,,,,2006-02-03
72287493134,2020-02-11T16:52:00,FM-15,7,,,3.89,mi,,,,,,,PENDING COOP,,,,,,,,,,,,,,,,,,,,,,,,,,,29.99,35,68,0.00,,,,30,29.98,CLR:00,29.79,10.00,52,250,,3,,,,,,,,,,,,,,,,,,,,,,,,,,,,,,,,,,,,,MET09002/11/20 16:52:01 METAR KCQT 120052Z 25003KT 10SM CLR 20/02 A2999 RMK AO2 SLP153 T02000017,FM-15,7,,,,,,,,,,,,,,,,,,,,,,,,,,,,2006-02-03
72287493134,2020-02-11T17:52:00,FM-15,6,,,3.89,mi,,,,,,,PENDING COOP,,,,,,,,,,,,,,,,,,,,,,,,,,,30.00,38,64,0.00,,,,38,30.00,CLR:00,29.80,9.00,51,,,,,,,,,,,,,,,,,,,,,,,,,,,,,,,,,,,,,,,,MET08902/11/20 17:52:01 METAR KCQT 120152Z      KT 9SM CLR 18/03 A3000 RMK AO2 SLP159 T01780033,FM-15,6,,,,,,,,,,,,,,,,,,,,,,,,,,,,2006-02-03
72287493134,2020-02-11T18:52:00,FM-15,7,,,3.89,mi,,,,,,,PENDING COOP,,,,,,,,,,,,,,,,,,,,,,,,,,,30.02,39,62,0.00,,-0.05,1,43,30.01,CLR:00,29.82,10.00,51,0,,0,,,,,,,,,,,,,,,,,,,,,,,,,,,,,,,,,,,,,MET09602/11/20 18:52:01 METAR KCQT 120252Z 00000KT 10SM CLR 17/04 A3002 RMK AO2 SLP164 T01670039 51016,FM-15,7,,,,,,,,,,,,,,,,,,,,,,,,,,,,2006-02-03
72287493134,2020-02-11T19:52:00,FM-15,7,,,3.89,mi,,,,,,,PENDING COOP,,,,,,,,,,,,,,,,,,,,,,,,,,,30.03,43,62,0.00,,,,50,30.03,CLR:00,29.83,10.00,52,0,,0,,,,,,,,,,,,,,,,,,,,,,,,,,,,,,,,,,,,,MET09002/11/20 19:52:01 METAR KCQT 120352Z 00000KT 10SM CLR 17/06 A3003 RMK AO2 SLP168 T01670061,FM-15,7,,,,,,,,,,,,,,,,,,,,,,,,,,,,2006-02-03
72287493134,2020-02-11T20:52:00,FM-15,7,,,3.89,mi,,,,,,,PENDING COOP,,,,,,,,,,,,,,,,,,,,,,,,,,,30.04,44,59,0.00,,,,58,30.04,CLR:00,29.84,10.00,51,0,,0,,,,,,,,,,,,,,,,,,,,,,,,,,,,,,,,,,,,,MET09002/11/20 20:52:01 METAR KCQT 120452Z 00000KT 10SM CLR 15/07 A3004 RMK AO2 SLP172 T01500067,FM-15,7,,,,,,,,,,,,,,,,,,,,,,,,,,,,2006-02-03
72287493134,2020-02-11T21:52:00,FM-15,7,,,3.89,mi,,,,,,,PENDING COOP,,,,,,,,,,,,,,,,,,,,,,,,,,,30.05,44,59,0.00,,-0.04,1,58,30.05,CLR:00,29.85,10.00,51,0,,0,,,,,,,,,,,,,,,,,,,,,,,,,,,,,,,,,,,,,MET10802/11/20 21:52:01 METAR KCQT 120552Z 00000KT 10SM CLR 15/07 A3005 RMK AO2 SLP175 T01500067 10217 20144 51012,FM-15,7,,,,,,,,,,,,,,,,,,,,,,,,,,,,2006-02-03
72287493134,2020-02-11T22:52:00,FM-15,7,,,3.89,mi,,,,,,,PENDING COOP,,,,,,,,,,,,,,,,,,,,,,,,,,,30.06,39,58,0.00,,,,50,30.06,CLR:00,29.86,10.00,49,90,,3,,,,,,,,,,,,,,,,,,,,,,,,,,,,,,,,,,,,,MET09002/11/20 22:52:01 METAR KCQT 120652Z 09003KT 10SM CLR 14/04 A3006 RMK AO2 SLP178 T01440039,FM-15,7,,,,,,,,,,,,,,,,,,,,,,,,,,,,2006-02-03
72287493134,2020-02-11T23:52:00,FM-15,7,,,3.89,mi,,,,,,,PENDING COOP,,,,,,,,,,,,,,,,,,,,,,,,,,,30.06,39,56,0.00,,,,53,30.05,CLR:00,29.86,10.00,48,0,,0,,,,,,,,,,,,,,,,,,,,,,,,,,,,,,,,,,,,,MET10002/11/20 23:52:01 METAR KCQT 120752Z 00000KT 10SM CLR 13/04 A3006 RMK AO2 SLP176 T01330039 402330111,FM-15,7,,,,,,,,,,,,,,,,,,,,,,,,,,,,2006-02-03
72287493134,2020-02-11T23:59:00,SOD  ,6,,,3.89,mi,,,,,,,PENDING COOP,,,,,63,,,29.79,,0.7,0,4.9,2,74,52,280,16,0.00,0,0.0,260,9,,,,,,,,,,,,,,,,,,,,,,,,,,,,,,,,,,,,,,,,,,,,,,,,,,,,,,,,,SOD73924 HR PRECIPITATION (IN): 0.00 SNOW DEPTH (IN):0     24 HR SNOWFALL (IN):0.0  24 HR MAX TEMP (F): 7424 HR MIN TEMP (F): 52AVERAGE STATION PRESSURE:29.790 MINIMUM SEA LEVEL PRESSURE:29.90 TIME OF OCCURRENCE:0244 PEAK WIND SPEED (MPH): 16 PEAK WIND DIR (DEG):280 PEAK WIND TIME (LST):      FASTEST 2MIN SPEED (MPH):  9FASTEST 2MIN DIR (DEG):260 FASTEST 2MIN TIME (LST):     AVERAGE WIND SPEED (MPH): 0.7 24 HR AVG TEMP (F): 63DEPART FROM NORMAL:  4  HEATING DEGREE DAYS:  2 COOLING DEGREE DAYS:  0 LATEST DAY MAX TEMP (0700-1900 LST):74  LATEST NIGHT MIN TEMP(1900-0800 LST):52 HOURLY INCREMENTAL PRECIPITATION VALUES (IN):.00 0.00 0.00 0.00 0.00 0.00 0.00 0.00 0.00 0.00 0.00 0.00 0.00 0.00 0.00 0.00 0.00 0.00 0.00 0.00 0.00 0.00 0.00 0.00,SOD  ,6,,,,,,,,,,,,,,,,,,,,,,,,,642,1733,,2006-02-03
72287493134,2020-02-12T00:52:00,FM-15,7,,,3.89,mi,,,,,,,PENDING COOP,,,,,,,,,,,,,,,,,,,,,,,,,,,30.06,32,57,0.00,,-0.01,1,39,30.06,CLR:00,29.86,10.00,46,0,,0,,,,,,,,,,,,,,,,,,,,,,,,,,,,,,,,,,,,,MET09602/12/20 00:52:02 METAR KCQT 120852Z 00000KT 10SM CLR 14/00 A3006 RMK AO2 SLP178 T01390000 51003,FM-15,7,,,,,,,,,,,,,,,,,,,,,,,,,,,,2006-02-03
72287493134,2020-02-12T01:52:00,FM-15,7,,,3.89,mi,,,,,,,PENDING COOP,,,,,,,,,,,,,,,,,,,,,,,,,,,30.06,36,56,0.00,,,,47,30.06,CLR:00,29.86,10.00,47,0,,0,,,,,,,,,,,,,,,,,,,,,,,,,,,,,,,,,,,,,MET09002/12/20 01:52:02 METAR KCQT 120952Z 00000KT 10SM CLR 13/02 A3006 RMK AO2 SLP178 T01330022,FM-15,7,,,,,,,,,,,,,,,,,,,,,,,,,,,,2006-02-03
72287493134,2020-02-12T02:52:00,FM-15,7,,,3.89,mi,,,,,,,PENDING COOP,,,,,,,,,,,,,,,,,,,,,,,,,,,30.06,38,54,0.00,,,,55,30.05,CLR:00,29.86,10.00,46,0,,0,,,,,,,,,,,,,,,,,,,,,,,,,,,,,,,,,,,,,MET09002/12/20 02:52:02 METAR KCQT 121052Z 00000KT 10SM CLR 12/03 A3006 RMK AO2 SLP176 T01220033,FM-15,7,,,,,,,,,,,,,,,,,,,,,,,,,,,,2006-02-03
72287493134,2020-02-12T03:52:00,FM-15,7,,,3.89,mi,,,,,,,PENDING COOP,,,,,,,,,,,,,,,,,,,,,,,,,,,30.05,38,52,0.00,,+0.01,8,59,30.05,CLR:00,29.85,10.00,45,0,,0,,,,,,,,,,,,,,,,,,,,,,,,,,,,,,,,,,,,,MET10802/12/20 03:52:02 METAR KCQT 121152Z 00000KT 10SM CLR 11/03 A3005 RMK AO2 SLP175 T01110033 10150 20111 58003,FM-15,7,,,,,,,,,,,,,,,,,,,,,,,,,,,,2006-02-03
72287493134,2020-02-12T04:52:00,FM-15,7,,,3.89,mi,,,,,,,PENDING COOP,,,,,,,,,,,,,,,,,,,,,,,,,,,30.05,37,51,0.00,,,,59,30.05,CLR:00,29.85,10.00,45,0,,0,,,,,,,,,,,,,,,,,,,,,,,,,,,,,,,,,,,,,MET09002/12/20 04:52:02 METAR KCQT 121252Z 00000KT 10SM CLR 11/03 A3005 RMK AO2 SLP176 T01060028,FM-15,7,,,,,,,,,,,,,,,,,,,,,,,,,,,,2006-02-03
72287493134,2020-02-12T05:52:00,FM-15,7,,,3.89,mi,,,,,,,PENDING COOP,,,,,,,,,,,,,,,,,,,,,,,,,,,30.06,33,52,0.00,,,,49,30.06,CLR:00,29.86,10.00,44,0,,0,,,,,,,,,,,,,,,,,,,,,,,,,,,,,,,,,,,,,MET09402/12/20 05:52:02 METAR KCQT 121352Z 00000KT 10SM CLR 11/01 A3006 RMK AO2 SLP178 T01110006 RTX,FM-15,7,,,,,,,,,,,,,,,,,,,,,,,,,,,,2006-02-03
72287493134,2020-02-12T06:52:00,FM-15,7,,,3.89,mi,,,,,,,PENDING COOP,,,,,,,,,,,,,,,,,,,,,,,,,,,30.07,30,54,0.00,,-0.02,3,40,30.07,CLR:00,29.87,10.00,44,0,,0,,,,,,,,,,,,,,,,,,,,,,,,,,,,,,,,,,,,,MET09702/12/20 06:52:02 METAR KCQT 121452Z 00000KT 10SM CLR 12/M01 A3007 RMK AO2 SLP182 T01221011 53006,FM-15,7,,,,,,,,,,,,,,,,,,,,,,,,,,,,2006-02-03
72287493134,2020-02-12T07:52:00,FM-15,7,,,3.89,mi,,,,,,,PENDING COOP,,,,,,,,,,,,,,,,,,,,,,,,,,,30.09,29,56,0.00,,,,36,30.09,CLR:00,29.89,10.00,44,80,,3,,,,,,,,,,,,,,,,,,,,,,,,,,,,,,,,,,,,,MET09102/12/20 07:52:02 METAR KCQT 121552Z 08003KT 10SM CLR 13/M02 A3009 RMK AO2 SLP189 T01331017,FM-15,7,,,,,,,,,,,,,,,,,,,,,,,,,,,,2006-02-03
72287493134,2020-02-12T08:52:00,FM-15,7,,,3.89,mi,,,,,,,PENDING COOP,,,,,,,,,,,,,,,,,,,,,,,,,,,30.11,29,59,0.00,,,,32,30.10,CLR:00,29.91,10.00,46,50,,3,,,,,,,,,,,,,,,,,,,,,,,,,,,,,,,,,,,,,MET09102/12/20 08:52:02 METAR KCQT 121652Z 05003KT 10SM CLR 15/M02 A3011 RMK AO2 SLP194 T01501017,FM-15,7,,,,,,,,,,,,,,,,,,,,,,,,,,,,2006-02-03
72287493134,2020-02-12T09:52:00,FM-15,7,,,3.89,mi,,,,,,,PENDING COOP,,,,,,,,,,,,,,,,,,,,,,,,,,,30.11,40,63,0.00,,-0.04,1,43,30.11,CLR:00,29.91,10.00,52,VRB,,5,,,,,,,,,,,,,,,,,,,,,,,,,,,,,,,,,,,,,MET10802/12/20 09:52:02 METAR KCQT 121752Z VRB04KT 10SM CLR 17/04 A3011 RMK AO2 SLP196 T01720044 10172 20100 51015,FM-15,7,,,,,,,,,,,,,,,,,,,,,,,,,,,,2006-02-03
72287493134,2020-02-12T10:52:00,FM-15,7,,,3.89,mi,,,,,,,PENDING COOP,,,,,,,,,,,,,,,,,,,,,,,,,,,30.12,41,66,0.00,,,,40,30.11,CLR:00,29.92,10.00,53,0,,0,,,,,,,,,,,,,,,,,,,,,,,,,,,,,,,,,,,,,MET09002/12/20 10:52:02 METAR KCQT 121852Z 00000KT 10SM CLR 19/05 A3012 RMK AO2 SLP198 T01890050,FM-15,7,,,,,,,,,,,,,,,,,,,,,,,,,,,,2006-02-03
72287493134,2020-02-12T11:52:00,FM-15,7,,,3.89,mi,,,,,,,PENDING COOP,,,,,,,,,,,,,,,,,,,,,,,,,,,30.10,41,67,0.00,,,,39,30.10,CLR:00,29.90,10.00,54,0,,0,,,,,,,,,,,,,,,,,,,,,,,,,,,,,,,,,,,,,MET09002/12/20 11:52:02 METAR KCQT 121952Z 00000KT 10SM CLR 19/05 A3010 RMK AO2 SLP192 T01940050,FM-15,7,,,,,,,,,,,,,,,,,,,,,,,,,,,,2006-02-03
72287493134,2020-02-12T12:52:00,FM-15,6,,,3.89,mi,,,,,,,PENDING COOP,,,,,,,,,,,,,,,,,,,,,,,,,,,30.08,44,68,0.00,,+0.04,8,42,30.07,CLR:00,29.88,10.00,55,,,,,,,,,,,,,,,,,,,,,,,,,,,,,,,,,,,,,,,,MET09602/12/20 12:52:02 METAR KCQT 122052Z      KT 10SM CLR 20/07 A3008 RMK AO2 SLP183 T02000067 58013,FM-15,6,,,,,,,,,,,,,,,,,,,,,,,,,,,,2006-02-03
72287493134,2020-02-12T13:52:00,FM-15,7,,,3.89,mi,,,,,,,PENDING COOP,,,,,,,,,,,,,,,,,,,,,,,,,,,30.06,48,69,0.00,,,,47,30.05,FEW:02 38,29.86,10.00,57,0,,0,,,,,,,,,,,,,,,,,,,,,,,,,,,,,,,,,,,,,MET09302/12/20 13:52:02 METAR KCQT 122152Z 00000KT 10SM FEW038 21/09 A3006 RMK AO2 SLP176 T02060089,FM-15,7,,,,,,,,,,,,,,,,,,,,,,,,,,,,2006-02-03
72287493134,2020-02-12T14:52:00,FM-15,7,,,3.89,mi,,,,,,,PENDING COOP,,,,,,,,,,,,,,,,,,,,,,,,,,,30.05,51,67,0.00,,,,57,30.04,CLR:00,29.85,10.00,58,250,,3,,,,,,,,,,,,,,,,,,,,,,,,,,,,,,,,,,,,,MET09002/12/20 14:52:02 METAR KCQT 122252Z 25003KT 10SM CLR 19/11 A3005 RMK AO2 SLP173 T01940106,FM-15,7,,,,,,,,,,,,,,,,,,,,,,,,,,,,2006-02-03
72287493134,2020-02-12T15:52:00,FM-15,6,,,3.89,mi,,,,,,,PENDING COOP,,,,,,,,,,,,,,,,,,,,,,,,,,,30.04,50,66,0.00,,+0.03,6,56,30.04,CLR:00,29.84,10.00,57,,,,,,,,,,,,,,,,,,,,,,,,,,,,,,,,,,,,,,,,MET10802/12/20 15:52:02 METAR KCQT 122352Z      KT 10SM CLR 19/10 A3004 RMK AO2 SLP173 T01890100 10206 20172 56011,FM-15,6,,,,,,,,,,,,,,,,,,,,,,,,,,,,2006-02-03
72287493134,2020-02-12T16:52:00,FM-15,7,,,3.89,mi,,,,,,,PENDING COOP,,,,,,,,,,,,,,,,,,,,,,,,,,,30.04,45,64,0.00,,,,50,30.04,CLR:00,29.84,10.00,54,270,,3,,,,,,,,,,,,,,,,,,,,,,,,,,,,,,,,,,,,,MET09002/12/20 16:52:01 METAR KCQT 130052Z 27003KT 10SM CLR 18/07 A3004 RMK AO2 SLP173 T01780072,FM-15,7,,,,,,,,,,,,,,,,,,,,,,,,,,,,2006-02-03
72287493134,2020-02-12T17:52:00,FM-15,7,,,3.89,mi,,,,,,,PENDING COOP,,,,,,,,,,,,,,,,,,,,,,,,,,,30.05,47,62,0.00,,,,58,30.04,CLR:00,29.85,10.00,54,0,,0,,,,,,,,,,,,,,,,,,,,,,,,,,,,,,,,,,,,,MET09002/12/20 17:52:01 METAR KCQT 130152Z 00000KT 10SM CLR 17/08 A3005 RMK AO2 SLP174 T01670083,FM-15,7,,,,,,,,,,,,,,,,,,,,,,,,,,,,2006-02-03
72287493134,2020-02-12T18:52:00,FM-15,7,,,3.89,mi,,,,,,,PENDING COOP,,,,,,,,,,,,,,,,,,,,,,,,,,,30.05,49,59,0.00,,-0.01,3,69,30.05,CLR:00,29.85,10.00,54,0,,0,,,,,,,,,,,,,,,,,,,,,,,,,,,,,,,,,,,,,MET09602/12/20 18:52:01 METAR KCQT 130252Z 00000KT 10SM CLR 15/09 A3005 RMK AO2 SLP177 T01500094 53004,FM-15,7,,,,,,,,,,,,,,,,,,,,,,,,,,,,2006-02-03
72287493134,2020-02-12T19:52:00,FM-15,7,,,3.89,mi,,,,,,,PENDING COOP,,,,,,,,,,,,,,,,,,,,,,,,,,,30.07,49,58,0.00,,,,72,30.06,CLR:00,29.87,10.00,53,0,,0,,,,,,,,,,,,,,,,,,,,,,,,,,,,,,,,,,,,,MET09002/12/20 19:52:01 METAR KCQT 130352Z 00000KT 10SM CLR 14/09 A3007 RMK AO2 SLP181 T01440094,FM-15,7,,,,,,,,,,,,,,,,,,,,,,,,,,,,2006-02-03
72287493134,2020-02-12T20:52:00,FM-15,7,,,3.89,mi,,,,,,,PENDING COOP,,,,,,,,,,,,,,,,,,,,,,,,,,,30.08,48,58,0.00,,,,70,30.08,CLR:00,29.88,10.00,53,0,,0,,,,,,,,,,,,,,,,,,,,,,,,,,,,,,,,,,,,,MET09002/12/20 20:52:01 METAR KCQT 130452Z 00000KT 10SM CLR 14/09 A3008 RMK AO2 SLP185 T01440089,FM-15,7,,,,,,,,,,,,,,,,,,,,,,,,,,,,2006-02-03
72287493134,2020-02-12T21:52:00,FM-15,7,,,3.89,mi,,,,,,,PENDING COOP,,,,,,,,,,,,,,,,,,,,,,,,,,,30.08,49,56,0.00,,-0.03,1,77,30.08,CLR:00,29.88,10.00,52,0,,0,,,,,,,,,,,,,,,,,,,,,,,,,,,,,,,,,,,,,MET10802/12/20 21:52:01 METAR KCQT 130552Z 00000KT 10SM CLR 13/09 A3008 RMK AO2 SLP186 T01330094 10189 20133 51009,FM-15,7,,,,,,,,,,,,,,,,,,,,,,,,,,,,2006-02-03
72287493134,2020-02-12T22:52:00,FM-15,7,,,3.89,mi,,,,,,,PENDING COOP,,,,,,,,,,,,,,,,,,,,,,,,,,,30.08,49,55,0.00,HZ:7 |FU |HZ,,,80,30.07,CLR:00,29.88,5.00,52,0,,0,,,,,,,,,,,,,,,,,,,,,,,,,,,,,,,,,,,,,MET09202/12/20 22:52:01 METAR KCQT 130652Z 00000KT 5SM HZ CLR 13/09 A3008 RMK AO2 SLP184 T01280094,FM-15,7,,,,,,,,,,,,,,,,,,,,,,,,,,,,2006-02-03
72287493134,2020-02-12T23:52:00,FM-15,7,,,3.89,mi,,,,,,,PENDING COOP,,,,,,,,,,,,,,,,,,,,,,,,,,,30.08,48,54,0.00,,,,80,30.07,CLR:00,29.88,8.00,51,0,,0,,,,,,,,,,,,,,,,,,,,,,,,,,,,,,,,,,,,,MET09902/12/20 23:52:01 METAR KCQT 130752Z 00000KT 8SM CLR 12/09 A3008 RMK AO2 SLP184 T01220089 402060100,FM-15,7,,,,,,,,,,,,,,,,,,,,,,,,,,,,2006-02-03
72287493134,2020-02-12T23:59:00,SOD  ,6,,,3.89,mi,,,,,,,PENDING COOP,,,,,60,,,29.87,,0.8,0,1.9,5,69,50,260,14,0.00,0,0.0,260,7,HZ,,,,,,,,,,,,,,,,,,,,,,,,,,,,,,,,,,,,,,,,,,,,,,,,,,,,,,,,SOD75624 HR PRECIPITATION (IN): 0.00 SNOW DEPTH (IN):0     24 HR SNOWFALL (IN):0.0  WEATHER(CODE):8  24 HR MAX TEMP (F): 6924 HR MIN TEMP (F): 50AVERAGE STATION PRESSURE:29.870 MINIMUM SEA LEVEL PRESSURE:30.04 TIME OF OCCURRENCE:1806 PEAK WIND SPEED (MPH): 14 PEAK WIND DIR (DEG):260 PEAK WIND TIME (LST):      FASTEST 2MIN SPEED (MPH):  7FASTEST 2MIN DIR (DEG):260 FASTEST 2MIN TIME (LST):     AVERAGE WIND SPEED (MPH): 0.8 24 HR AVG TEMP (F): 60DEPART FROM NORMAL:  1  HEATING DEGREE DAYS:  5 COOLING DEGREE DAYS:  0 LATEST DAY MAX TEMP (0700-1900 LST):69  LATEST NIGHT MIN TEMP(1900-0800 LST):50 HOURLY INCREMENTAL PRECIPITATION VALUES (IN):.00 0.00 0.00 0.00 0.00 0.00 0.00 0.00 0.00 0.00 0.00 0.00 0.00 0.00 0.00 0.00 0.00 0.00 0.00 0.00 0.00 0.00 0.00 0.00,SOD  ,6,,,,,,,,,,,,,,,,,,,,,,,,,641,1734,,2006-02-03
72287493134,2020-02-13T00:38:00,FM-16,7,,,3.89,mi,,,,,,,PENDING COOP,,,,,,,,,,,,,,,,,,,,,,,,,,,30.08,47,53,,,,,80,,BKN:07 12,29.88,9.00,50,0,,0,,,,,,,,,,,,,,,,,,,,,,,,,,,,,,,,,,,,,MET08502/13/20 00:38:02 SPECI KCQT 130838Z 00000KT 9SM BKN012 12/08 A3008 RMK AO2 T01170083,FM-16,7,,,,,,,,,,,,,,,,,,,,,,,,,,,,2006-02-03
72287493134,2020-02-13T00:52:00,FM-15,7,,,3.89,mi,,,,,,,PENDING COOP,,,,,,,,,,,,,,,,,,,,,,,,,,,30.08,47,53,0.00,,+0.00,5,80,30.07,OVC:08 11,29.88,9.00,50,0,,0,,,,,,,,,,,,,,,,,,,,,,,,,,,,,,,,,,,,,MET09802/13/20 00:52:02 METAR KCQT 130852Z 00000KT 9SM OVC011 12/08 A3008 RMK AO2 SLP184 T01170083 55001,FM-15,7,,,,,,,,,,,,,,,,,,,,,,,,,,,,2006-02-03
72287493134,2020-02-13T01:27:00,FM-16,7,,,3.89,mi,,,,,,,PENDING COOP,,,,,,,,,,,,,,,,,,,,,,,,,,,30.08,48,54,,,,,80,,OVC:08 9,29.88,9.00,51,0,,0,,,,,,,,,,,,,,,,,,,,,,,,,,,,,,,,,,,,,MET08502/13/20 01:27:02 SPECI KCQT 130927Z 00000KT 9SM OVC009 12/09 A3008 RMK AO2 T01220089,FM-16,7,,,,,,,,,,,,,,,,,,,,,,,,,,,,2006-02-03
72287493134,2020-02-13T01:38:00,FM-16,7,,,3.89,mi,,,,,,,PENDING COOP,,,,,,,,,,,,,,,,,,,,,,,,,,,30.08,47,55,,,,,74,,OVC:08 10,29.88,9.00,51,0,,0,,,,,,,,,,,,,,,,,,,,,,,,,,,,,,,,,,,,,MET08502/13/20 01:38:02 SPECI KCQT 130938Z 00000KT 9SM OVC010 13/08 A3008 RMK AO2 T01280083,FM-16,7,,,,,,,,,,,,,,,,,,,,,,,,,,,,2006-02-03
72287493134,2020-02-13T01:52:00,FM-15,7,,,3.89,mi,,,,,,,PENDING COOP,,,,,,,,,,,,,,,,,,,,,,,,,,,30.08,48,55,0.00,,,,77,30.07,OVC:08 10,29.88,9.00,51,0,,0,,,,,,,,,,,,,,,,,,,,,,,,,,,,,,,,,,,,,MET09202/13/20 01:52:02 METAR KCQT 130952Z 00000KT 9SM OVC010 13/09 A3008 RMK AO2 SLP183 T01280089,FM-15,7,,,,,,,,,,,,,,,,,,,,,,,,,,,,2006-02-03
72287493134,2020-02-13T02:16:00,FM-16,7,,,3.89,mi,,,,,,,PENDING COOP,,,,,,,,,,,,,,,,,,,,,,,,,,,30.07,47,54,,,,,77,,SCT:04 12,29.87,8.00,50,0,,0,,,,,,,,,,,,,,,,,,,,,,,,,,,,,,,,,,,,,MET08502/13/20 02:16:02 SPECI KCQT 131016Z 00000KT 8SM SCT012 12/08 A3007 RMK AO2 T01220083,FM-16,7,,,,,,,,,,,,,,,,,,,,,,,,,,,,2006-02-03
72287493134,2020-02-13T02:52:00,FM-15,7,,,3.89,mi,,,,,,,PENDING COOP,,,,,,,,,,,,,,,,,,,,,,,,,,,30.06,46,53,0.00,,,,77,30.06,CLR:00,29.86,9.00,49,0,,0,,,,,,,,,,,,,,,,,,,,,,,,,,,,,,,,,,,,,MET08902/13/20 02:52:02 METAR KCQT 131052Z 00000KT 9SM CLR 12/08 A3006 RMK AO2 SLP178 T01170078,FM-15,7,,,,,,,,,,,,,,,,,,,,,,,,,,,,2006-02-03
72287493134,2020-02-13T03:52:00,FM-15,7,,,3.89,mi,,,,,,,PENDING COOP,,,,,,,,,,,,,,,,,,,,,,,,,,,30.05,45,51,0.00,,+0.03,8,80,30.05,CLR:00,29.85,8.00,48,0,,0,,,,,,,,,,,,,,,,,,,,,,,,,,,,,,,,,,,,,MET10702/13/20 03:52:02 METAR KCQT 131152Z 00000KT 8SM CLR 11/07 A3005 RMK AO2 SLP177 T01060072 10133 20106 58009,FM-15,7,,,,,,,,,,,,,,,,,,,,,,,,,,,,2006-02-03
72287493134,2020-02-13T04:52:00,FM-15,7,,,3.89,mi,,,,,,,PENDING COOP,,,,,,,,,,,,,,,,,,,,,,,,,,,30.06,44,52,0.00,,,,75,30.05,CLR:00,29.86,8.00,48,0,,0,,,,,,,,,,,,,,,,,,,,,,,,,,,,,,,,,,,,,MET08902/13/20 04:52:02 METAR KCQT 131252Z 00000KT 8SM CLR 11/07 A3006 RMK AO2 SLP177 T01110067,FM-15,7,,,,,,,,,,,,,,,,,,,,,,,,,,,,2006-02-03
72287493134,2020-02-13T05:52:00,FM-15,7,,,3.89,mi,,,,,,,PENDING COOP,,,,,,,,,,,,,,,,,,,,,,,,,,,30.06,42,50,0.00,,,,74,30.06,CLR:00,29.86,10.00,46,0,,0,,,,,,,,,,,,,,,,,,,,,,,,,,,,,,,,,,,,,MET09002/13/20 05:52:02 METAR KCQT 131352Z 00000KT 10SM CLR 10/06 A3006 RMK AO2 SLP178 T01000056,FM-15,7,,,,,,,,,,,,,,,,,,,,,,,,,,,,2006-02-03
72287493134,2020-02-13T06:52:00,FM-15,7,,,3.89,mi,,,,,,,PENDING COOP,,,,,,,,,,,,,,,,,,,,,,,,,,,30.08,39,51,0.00,,-0.02,3,64,30.07,CLR:00,29.88,9.00,45,0,,0,,,,,,,,,,,,,,,,,,,,,,,,,,,,,,,,,,,,,MET09502/13/20 06:52:02 METAR KCQT 131452Z 00000KT 9SM CLR 11/04 A3008 RMK AO2 SLP184 T01060039 53007,FM-15,7,,,,,,,,,,,,,,,,,,,,,,,,,,,,2006-02-03
72287493134,2020-02-13T07:52:00,FM-15,7,,,3.89,mi,,,,,,,PENDING COOP,,,,,,,,,,,,,,,,,,,,,,,,,,,30.09,39,54,0.00,,,,57,30.09,CLR:00,29.89,10.00,47,0,,0,,,,,,,,,,,,,,,,,,,,,,,,,,,,,,,,,,,,,MET09002/13/20 07:52:02 METAR KCQT 131552Z 00000KT 10SM CLR 12/04 A3009 RMK AO2 SLP189 T01220039,FM-15,7,,,,,,,,,,,,,,,,,,,,,,,,,,,,2006-02-03
72287493134,2020-02-13T08:52:00,FM-15,7,,,3.89,mi,,,,,,,PENDING COOP,,,,,,,,,,,,,,,,,,,,,,,,,,,30.10,40,59,0.00,,,,49,30.09,CLR:00,29.90,10.00,50,0,,0,,,,,,,,,,,,,,,,,,,,,,,,,,,,,,,,,,,,,MET09002/13/20 08:52:02 METAR KCQT 131652Z 00000KT 10SM CLR 15/04 A3010 RMK AO2 SLP191 T01500044,FM-15,7,,,,,,,,,,,,,,,,,,,,,,,,,,,,2006-02-03
72287493134,2020-02-13T09:52:00,FM-15,7,,,3.89,mi,,,,,,,PENDING COOP,,,,,,,,,,,,,,,,,,,,,,,,,,,30.09,39,64,0.00,,-0.02,0,40,30.09,CLR:00,29.89,10.00,52,0,,0,,,,,,,,,,,,,,,,,,,,,,,,,,,,,,,,,,,,,MET10802/13/20 09:52:02 METAR KCQT 131752Z 00000KT 10SM CLR 18/04 A3009 RMK AO2 SLP190 T01780039 10178 20100 50006,FM-15,7,,,,,,,,,,,,,,,,,,,,,,,,,,,,2006-02-03
72287493134,2020-02-13T10:52:00,FM-15,7,,,3.89,mi,,,,,,,PENDING COOP,,,,,,,,,,,,,,,,,,,,,,,,,,,30.08,39,67,0.00,,,,36,30.08,CLR:00,29.88,10.00,53,0,,0,,,,,,,,,,,,,,,,,,,,,,,,,,,,,,,,,,,,,MET09002/13/20 10:52:02 METAR KCQT 131852Z 00000KT 10SM CLR 19/04 A3008 RMK AO2 SLP185 T01940039,FM-15,7,,,,,,,,,,,,,,,,,,,,,,,,,,,,2006-02-03
72287493134,2020-02-13T11:52:00,FM-15,7,,,3.89,mi,,,,,,,PENDING COOP,,,,,,,,,,,,,,,,,,,,,,,,,,,30.07,39,69,0.00,,,,33,30.06,CLR:00,29.87,10.00,54,VRB,,3,,,,,,,,,,,,,,,,,,,,,,,,,,,,,,,,,,,,,MET09002/13/20 11:52:02 METAR KCQT 131952Z VRB03KT 10SM CLR 21/04 A3007 RMK AO2 SLP179 T02060039,FM-15,7,,,,,,,,,,,,,,,,,,,,,,,,,,,,2006-02-03
72287493134,2020-02-13T12:52:00,FM-15,7,,,3.89,mi,,,,,,,PENDING COOP,,,,,,,,,,,,,,,,,,,,,,,,,,,30.03,40,69,0.00,,+0.06,8,35,30.03,CLR:00,29.83,10.00,54,0,,0,,,,,,,,,,,,,,,,,,,,,,,,,,,,,,,,,,,,,MET09602/13/20 12:52:02 METAR KCQT 132052Z 00000KT 10SM CLR 21/04 A3003 RMK AO2 SLP168 T02060044 58021,FM-15,7,,,,,,,,,,,,,,,,,,,,,,,,,,,,2006-02-03
72287493134,2020-02-13T13:52:00,FM-15,7,,,3.89,mi,,,,,,,PENDING COOP,,,,,,,,,,,,,,,,,,,,,,,,,,,30.01,37,70,0.00,,,,30,30.01,CLR:00,29.81,10.00,53,VRB,,3,,,,,,,,,,,,,,,,,,,,,,,,,,,,,,,,,,,,,MET09002/13/20 13:52:02 METAR KCQT 132152Z VRB03KT 10SM CLR 21/03 A3001 RMK AO2 SLP161 T02110028,FM-15,7,,,,,,,,,,,,,,,,,,,,,,,,,,,,2006-02-03
72287493134,2020-02-13T14:52:00,FM-15,7,,,3.89,mi,,,,,,,PENDING COOP,,,,,,,,,,,,,,,,,,,,,,,,,,,30.00,35,68,0.00,,,,30,29.99,CLR:00,29.80,10.00,52,270,,6,,,,,,,,,,,,,,,,,,,,,,,,,,,,,,,,,,,,,MET09002/13/20 14:52:02 METAR KCQT 132252Z 27005KT 10SM CLR 20/02 A3000 RMK AO2 SLP157 T02000017,FM-15,7,,,,,,,,,,,,,,,,,,,,,,,,,,,,2006-02-03
72287493134,2020-02-13T15:52:00,FM-15,7,,,3.89,mi,,,,,,,PENDING COOP,,,,,,,,,,,,,,,,,,,,,,,,,,,30.00,40,67,0.00,,+0.04,6,37,29.99,CLR:00,29.80,10.00,53,VRB,,3,,,,,,,,,,,,,,,,,,,,,,,,,,,,,,,,,,,,,MET10802/13/20 15:52:02 METAR KCQT 132352Z VRB03KT 10SM CLR 19/04 A3000 RMK AO2 SLP157 T01940044 10217 20178 56012,FM-15,7,,,,,,,,,,,,,,,,,,,,,,,,,,,,2006-02-03
72287493134,2020-02-13T16:52:00,FM-15,7,,,3.89,mi,,,,,,,PENDING COOP,,,,,,,,,,,,,,,,,,,,,,,,,,,30.00,43,65,0.00,,,,45,30.00,CLR:00,29.80,10.00,54,VRB,,5,,,,,,,,,,,,,,,,,,,,,,,,,,,,,,,,,,,,,MET09002/13/20 16:52:01 METAR KCQT 140052Z VRB04KT 10SM CLR 18/06 A3000 RMK AO2 SLP158 T01830061,FM-15,7,,,,,,,,,,,,,,,,,,,,,,,,,,,,2006-02-03
72287493134,2020-02-13T17:52:00,FM-15,7,,,3.89,mi,,,,,,,PENDING COOP,,,,,,,,,,,,,,,,,,,,,,,,,,,30.01,46,61,0.00,,,,58,30.01,CLR:00,29.81,10.00,53,260,,6,,,,,,,,,,,,,,,,,,,,,,,,,,,,,,,,,,,,,MET09002/13/20 17:52:01 METAR KCQT 140152Z 26005KT 10SM CLR 16/08 A3001 RMK AO2 SLP162 T01610078,FM-15,7,,,,,,,,,,,,,,,,,,,,,,,,,,,,2006-02-03
72287493134,2020-02-13T18:52:00,FM-15,7,,,3.89,mi,,,,,,,PENDING COOP,,,,,,,,,,,,,,,,,,,,,,,,,,,30.02,48,60,0.00,,-0.02,3,65,30.01,CLR:00,29.82,10.00,54,0,,0,,,,,,,,,,,,,,,,,,,,,,,,,,,,,,,,,,,,,MET09602/13/20 18:52:01 METAR KCQT 140252Z 00000KT 10SM CLR 16/09 A3002 RMK AO2 SLP164 T01560089 53007,FM-15,7,,,,,,,,,,,,,,,,,,,,,,,,,,,,2006-02-03
72287493134,2020-02-13T19:52:00,FM-15,7,,,3.89,mi,,,,,,,PENDING COOP,,,,,,,,,,,,,,,,,,,,,,,,,,,30.03,49,59,0.00,,,,69,30.03,CLR:00,29.83,10.00,54,0,,0,,,,,,,,,,,,,,,,,,,,,,,,,,,,,,,,,,,,,MET09002/13/20 19:52:01 METAR KCQT 140352Z 00000KT 10SM CLR 15/09 A3003 RMK AO2 SLP168 T01500094,FM-15,7,,,,,,,,,,,,,,,,,,,,,,,,,,,,2006-02-03
72287493134,2020-02-13T20:52:00,FM-15,7,,,3.89,mi,,,,,,,PENDING COOP,,,,,,,,,,,,,,,,,,,,,,,,,,,30.04,50,58,0.00,,,,75,30.03,CLR:00,29.84,10.00,54,0,,0,,,,,,,,,,,,,,,,,,,,,,,,,,,,,,,,,,,,,MET09002/13/20 20:52:02 METAR KCQT 140452Z 00000KT 10SM CLR 14/10 A3004 RMK AO2 SLP171 T01440100,FM-15,7,,,,,,,,,,,,,,,,,,,,,,,,,,,,2006-02-03
72287493134,2020-02-13T21:52:00,FM-15,7,,,3.89,mi,,,,,,,PENDING COOP,,,,,,,,,,,,,,,,,,,,,,,,,,,30.05,49,57,0.00,,-0.03,1,74,30.04,CLR:00,29.85,10.00,53,0,,0,,,,,,,,,,,,,,,,,,,,,,,,,,,,,,,,,,,,,MET10802/13/20 21:52:02 METAR KCQT 140552Z 00000KT 10SM CLR 14/09 A3005 RMK AO2 SLP174 T01390094 10194 20139 51010,FM-15,7,,,,,,,,,,,,,,,,,,,,,,,,,,,,2006-02-03
72287493134,2020-02-13T22:52:00,FM-15,7,,,3.89,mi,,,,,,,PENDING COOP,,,,,,,,,,,,,,,,,,,,,,,,,,,30.05,49,56,0.00,,,,77,30.04,CLR:00,29.85,10.00,52,0,,0,,,,,,,,,,,,,,,,,,,,,,,,,,,,,,,,,,,,,MET09002/13/20 22:52:02 METAR KCQT 140652Z 00000KT 10SM CLR 13/09 A3005 RMK AO2 SLP173 T01330094,FM-15,7,,,,,,,,,,,,,,,,,,,,,,,,,,,,2006-02-03
72287493134,2020-02-13T23:52:00,FM-15,7,,,3.89,mi,,,,,,,PENDING COOP,,,,,,,,,,,,,,,,,,,,,,,,,,,30.05,48,56,0.00,,,,75,30.04,CLR:00,29.85,10.00,52,0,,0,,,,,,,,,,,,,,,,,,,,,,,,,,,,,,,,,,,,,MET10002/13/20 23:52:02 METAR KCQT 140752Z 00000KT 10SM CLR 13/09 A3005 RMK AO2 SLP173 T01330089 402170100,FM-15,7,,,,,,,,,,,,,,,,,,,,,,,,,,,,2006-02-03
72287493134,2020-02-13T23:59:00,SOD  ,6,,,3.89,mi,,,,,,,PENDING COOP,,,,,61,,,29.85,,1.1,0,2.9,4,71,50,270,13,0.00,0,0.0,260,8,,,,,,,,,,,,,,,,,,,,,,,,,,,,,,,,,,,,,,,,,,,,,,,,,,,,,,,,,SOD73924 HR PRECIPITATION (IN): 0.00 SNOW DEPTH (IN):0     24 HR SNOWFALL (IN):0.0  24 HR MAX TEMP (F): 7124 HR MIN TEMP (F): 50AVERAGE STATION PRESSURE:29.845 MINIMUM SEA LEVEL PRESSURE:29.99 TIME OF OCCURRENCE:1646 PEAK WIND SPEED (MPH): 13 PEAK WIND DIR (DEG):270 PEAK WIND TIME (LST):      FASTEST 2MIN SPEED (MPH):  8FASTEST 2MIN DIR (DEG):260 FASTEST 2MIN TIME (LST):     AVERAGE WIND SPEED (MPH): 1.1 24 HR AVG TEMP (F): 61DEPART FROM NORMAL:  2  HEATING DEGREE DAYS:  4 COOLING DEGREE DAYS:  0 LATEST DAY MAX TEMP (0700-1900 LST):71  LATEST NIGHT MIN TEMP(1900-0800 LST):50 HOURLY INCREMENTAL PRECIPITATION VALUES (IN):.00 0.00 0.00 0.00 0.00 0.00 0.00 0.00 0.00 0.00 0.00 0.00 0.00 0.00 0.00 0.00 0.00 0.00 0.00 0.00 0.00 0.00 0.00 0.00,SOD  ,6,,,,,,,,,,,,,,,,,,,,,,,,,640,1735,,2006-02-03
72287493134,2020-02-14T00:52:00,FM-15,7,,,3.89,mi,,,,,,,PENDING COOP,,,,,,,,,,,,,,,,,,,,,,,,,,,30.04,48,54,0.00,,+0.01,8,80,30.03,CLR:00,29.84,9.00,51,0,,0,,,,,,,,,,,,,,,,,,,,,,,,,,,,,,,,,,,,,MET09502/14/20 00:52:02 METAR KCQT 140852Z 00000KT 9SM CLR 12/09 A3004 RMK AO2 SLP170 T01220089 58004,FM-15,7,,,,,,,,,,,,,,,,,,,,,,,,,,,,2006-02-03
72287493134,2020-02-14T01:52:00,FM-15,7,,,3.89,mi,,,,,,,PENDING COOP,,,,,,,,,,,,,,,,,,,,,,,,,,,30.03,47,53,0.00,,,,80,30.03,CLR:00,29.83,10.00,50,0,,0,,,,,,,,,,,,,,,,,,,,,,,,,,,,,,,,,,,,,MET09002/14/20 01:52:02 METAR KCQT 140952Z 00000KT 10SM CLR 12/08 A3003 RMK AO2 SLP168 T01170083,FM-15,7,,,,,,,,,,,,,,,,,,,,,,,,,,,,2006-02-03
72287493134,2020-02-14T02:52:00,FM-15,7,,,3.89,mi,,,,,,,PENDING COOP,,,,,,,,,,,,,,,,,,,,,,,,,,,30.03,46,52,0.00,,,,80,30.03,CLR:00,29.83,10.00,49,0,,0,,,,,,,,,,,,,,,,,,,,,,,,,,,,,,,,,,,,,MET09002/14/20 02:52:02 METAR KCQT 141052Z 00000KT 10SM CLR 11/08 A3003 RMK AO2 SLP168 T01110078,FM-15,7,,,,,,,,,,,,,,,,,,,,,,,,,,,,2006-02-03
72287493134,2020-02-14T03:52:00,FM-15,7,,,3.89,mi,,,,,,,PENDING COOP,,,,,,,,,,,,,,,,,,,,,,,,,,,30.03,43,51,0.00,,+0.01,5,74,30.03,CLR:00,29.83,9.00,47,0,,0,,,,,,,,,,,,,,,,,,,,,,,,,,,,,,,,,,,,,MET10702/14/20 03:52:02 METAR KCQT 141152Z 00000KT 9SM CLR 11/06 A3003 RMK AO2 SLP169 T01060061 10139 20106 55002,FM-15,7,,,,,,,,,,,,,,,,,,,,,,,,,,,,2006-02-03
72287493134,2020-02-14T04:52:00,FM-15,7,,,3.89,mi,,,,,,,PENDING COOP,,,,,,,,,,,,,,,,,,,,,,,,,,,30.03,41,52,0.00,,,,66,30.03,CLR:00,29.83,10.00,47,0,,0,,,,,,,,,,,,,,,,,,,,,,,,,,,,,,,,,,,,,MET09002/14/20 04:52:02 METAR KCQT 141252Z 00000KT 10SM CLR 11/05 A3003 RMK AO2 SLP168 T01110050,FM-15,7,,,,,,,,,,,,,,,,,,,,,,,,,,,,2006-02-03
72287493134,2020-02-14T05:52:00,FM-15,7,,,3.89,mi,,,,,,,PENDING COOP,,,,,,,,,,,,,,,,,,,,,,,,,,,30.03,42,50,0.00,,,,74,30.03,CLR:00,29.83,10.00,46,0,,0,,,,,,,,,,,,,,,,,,,,,,,,,,,,,,,,,,,,,MET09002/14/20 05:52:02 METAR KCQT 141352Z 00000KT 10SM CLR 10/06 A3003 RMK AO2 SLP169 T01000056,FM-15,7,,,,,,,,,,,,,,,,,,,,,,,,,,,,2006-02-03
72287493134,2020-02-14T06:52:00,FM-15,7,,,3.89,mi,,,,,,,PENDING COOP,,,,,,,,,,,,,,,,,,,,,,,,,,,30.05,42,50,0.00,,-0.02,3,74,30.05,CLR:00,29.85,9.00,46,0,,0,,,,,,,,,,,,,,,,,,,,,,,,,,,,,,,,,,,,,MET09502/14/20 06:52:02 METAR KCQT 141452Z 00000KT 9SM CLR 10/06 A3005 RMK AO2 SLP176 T01000056 53007,FM-15,7,,,,,,,,,,,,,,,,,,,,,,,,,,,,2006-02-03
72287493134,2020-02-14T07:52:00,FM-15,7,,,3.89,mi,,,,,,,PENDING COOP,,,,,,,,,,,,,,,,,,,,,,,,,,,30.07,40,55,0.00,,,,57,30.07,CLR:00,29.87,10.00,48,0,,0,,,,,,,,,,,,,,,,,,,,,,,,,,,,,,,,,,,,,MET09002/14/20 07:52:02 METAR KCQT 141552Z 00000KT 10SM CLR 13/04 A3007 RMK AO2 SLP183 T01280044,FM-15,7,,,,,,,,,,,,,,,,,,,,,,,,,,,,2006-02-03
72287493134,2020-02-14T08:52:00,FM-15,7,,,3.89,mi,,,,,,,PENDING COOP,,,,,,,,,,,,,,,,,,,,,,,,,,,30.08,41,59,0.00,,,,51,30.08,CLR:00,29.88,10.00,50,0,,0,,,,,,,,,,,,,,,,,,,,,,,,,,,,,,,,,,,,,MET09002/14/20 08:52:02 METAR KCQT 141652Z 00000KT 10SM CLR 15/05 A3008 RMK AO2 SLP185 T01500050,FM-15,7,,,,,,,,,,,,,,,,,,,,,,,,,,,,2006-02-03
72287493134,2020-02-14T09:52:00,FM-15,7,,,3.89,mi,,,,,,,PENDING COOP,,,,,,,,,,,,,,,,,,,,,,,,,,,30.08,45,63,0.00,,-0.03,1,52,30.08,CLR:00,29.88,10.00,54,0,,0,,,,,,,,,,,,,,,,,,,,,,,,,,,,,,,,,,,,,MET10802/14/20 09:52:02 METAR KCQT 141752Z 00000KT 10SM CLR 17/07 A3008 RMK AO2 SLP187 T01720072 10172 20094 51010,FM-15,7,,,,,,,,,,,,,,,,,,,,,,,,,,,,2006-02-03
72287493134,2020-02-14T10:52:00,FM-15,7,,,3.89,mi,,,,,,,PENDING COOP,,,,,,,,,,,,,,,,,,,,,,,,,,,30.08,45,66,0.00,,,,47,30.07,CLR:00,29.88,9.00,55,VRB,,3,,,,,,,,,,,,,,,,,,,,,,,,,,,,,,,,,,,,,MET08902/14/20 10:52:02 METAR KCQT 141852Z VRB03KT 9SM CLR 19/07 A3008 RMK AO2 SLP184 T01890072,FM-15,7,,,,,,,,,,,,,,,,,,,,,,,,,,,,2006-02-03
72287493134,2020-02-14T11:52:00,FM-15,7,,,3.89,mi,,,,,,,PENDING COOP,,,,,,,,,,,,,,,,,,,,,,,,,,,30.07,46,68,0.00,,,,45,30.06,CLR:00,29.87,8.00,56,VRB,,3,,,,,,,,,,,,,,,,,,,,,,,,,,,,,,,,,,,,,MET08902/14/20 11:52:02 METAR KCQT 141952Z VRB03KT 8SM CLR 20/08 A3007 RMK AO2 SLP179 T02000078,FM-15,7,,,,,,,,,,,,,,,,,,,,,,,,,,,,2006-02-03
72287493134,2020-02-14T12:52:00,FM-15,7,,,3.89,mi,,,,,,,PENDING COOP,,,,,,,,,,,,,,,,,,,,,,,,,,,30.04,48,68,0.00,,+0.04,8,49,30.03,CLR:00,29.84,10.00,57,0,,0,,,,,,,,,,,,,,,,,,,,,,,,,,,,,,,,,,,,,MET09602/14/20 12:52:02 METAR KCQT 142052Z 00000KT 10SM CLR 20/09 A3004 RMK AO2 SLP170 T02000089 58015,FM-15,7,,,,,,,,,,,,,,,,,,,,,,,,,,,,2006-02-03
72287493134,2020-02-14T13:52:00,FM-15,7,,,3.89,mi,,,,,,,PENDING COOP,,,,,,,,,,,,,,,,,,,,,,,,,,,30.02,42,70,0.00,,,,37,30.01,CLR:00,29.82,10.00,55,0,,0,,,,,,,,,,,,,,,,,,,,,,,,,,,,,,,,,,,,,MET09002/14/20 13:52:02 METAR KCQT 142152Z 00000KT 10SM CLR 21/06 A3002 RMK AO2 SLP164 T02110056,FM-15,7,,,,,,,,,,,,,,,,,,,,,,,,,,,,2006-02-03
72287493134,2020-02-14T14:52:00,FM-15,7,,,3.89,mi,,,,,,,PENDING COOP,,,,,,,,,,,,,,,,,,,,,,,,,,,30.02,44,68,0.00,,,,42,30.02,CLR:00,29.82,10.00,55,0,,0,,,,,,,,,,,,,,,,,,,,,,,,,,,,,,,,,,,,,MET09002/14/20 14:52:02 METAR KCQT 142252Z 00000KT 10SM CLR 20/07 A3002 RMK AO2 SLP165 T02000067,FM-15,7,,,,,,,,,,,,,,,,,,,,,,,,,,,,2006-02-03
72287493134,2020-02-14T15:52:00,FM-15,7,,,3.89,mi,,,,,,,PENDING COOP,,,,,,,,,,,,,,,,,,,,,,,,,,,30.03,46,66,0.00,,+0.01,5,49,30.02,CLR:00,29.83,10.00,55,VRB,,3,,,,,,,,,,,,,,,,,,,,,,,,,,,,,,,,,,,,,MET10802/14/20 15:52:02 METAR KCQT 142352Z VRB03KT 10SM CLR 19/08 A3003 RMK AO2 SLP167 T01890078 10217 20172 55004,FM-15,7,,,,,,,,,,,,,,,,,,,,,,,,,,,,2006-02-03
72287493134,2020-02-14T16:52:00,FM-15,7,,,3.89,mi,,,,,,,PENDING COOP,,,,,,,,,,,,,,,,,,,,,,,,,,,30.03,46,64,0.00,,,,52,30.03,CLR:00,29.83,10.00,54,250,,5,,,,,,,,,,,,,,,,,,,,,,,,,,,,,,,,,,,,,MET09002/14/20 16:52:01 METAR KCQT 150052Z 25004KT 10SM CLR 18/08 A3003 RMK AO2 SLP168 T01780078,FM-15,7,,,,,,,,,,,,,,,,,,,,,,,,,,,,2006-02-03
72287493134,2020-02-14T17:52:00,FM-15,7,,,3.89,mi,,,,,,,PENDING COOP,,,,,,,,,,,,,,,,,,,,,,,,,,,30.06,47,61,0.00,,,,60,30.06,CLR:00,29.86,10.00,54,0,,0,,,,,,,,,,,,,,,,,,,,,,,,,,,,,,,,,,,,,MET09002/14/20 17:52:01 METAR KCQT 150152Z 00000KT 10SM CLR 16/08 A3006 RMK AO2 SLP178 T01610083,FM-15,7,,,,,,,,,,,,,,,,,,,,,,,,,,,,2006-02-03
72287493134,2020-02-14T18:52:00,FM-15,7,,,3.89,mi,,,,,,,PENDING COOP,,,,,,,,,,,,,,,,,,,,,,,,,,,30.07,49,59,0.00,,-0.04,3,69,30.07,CLR:00,29.87,10.00,54,0,,0,,,,,,,,,,,,,,,,,,,,,,,,,,,,,,,,,,,,,MET09602/14/20 18:52:01 METAR KCQT 150252Z 00000KT 10SM CLR 15/09 A3007 RMK AO2 SLP182 T01500094 53015,FM-15,7,,,,,,,,,,,,,,,,,,,,,,,,,,,,2006-02-03
72287493134,2020-02-14T19:52:00,FM-15,7,,,3.89,mi,,,,,,,PENDING COOP,,,,,,,,,,,,,,,,,,,,,,,,,,,30.09,50,58,0.00,,,,75,30.09,CLR:00,29.89,10.00,54,0,,0,,,,,,,,,,,,,,,,,,,,,,,,,,,,,,,,,,,,,MET09002/14/20 19:52:01 METAR KCQT 150352Z 00000KT 10SM CLR 14/10 A3009 RMK AO2 SLP189 T01440100,FM-15,7,,,,,,,,,,,,,,,,,,,,,,,,,,,,2006-02-03
72287493134,2020-02-14T20:52:00,FM-15,7,,,3.89,mi,,,,,,,PENDING COOP,,,,,,,,,,,,,,,,,,,,,,,,,,,30.11,50,57,0.00,,,,78,30.10,CLR:00,29.91,9.00,53,0,,0,,,,,,,,,,,,,,,,,,,,,,,,,,,,,,,,,,,,,MET08902/14/20 20:52:02 METAR KCQT 150452Z 00000KT 9SM CLR 14/10 A3011 RMK AO2 SLP194 T01390100,FM-15,7,,,,,,,,,,,,,,,,,,,,,,,,,,,,2006-02-03
72287493134,2020-02-14T21:52:00,FM-15,7,,,3.89,mi,,,,,,,PENDING COOP,,,,,,,,,,,,,,,,,,,,,,,,,,,30.11,50,57,0.00,,-0.04,1,78,30.11,CLR:00,29.91,8.00,53,0,,0,,,,,,,,,,,,,,,,,,,,,,,,,,,,,,,,,,,,,MET10702/14/20 21:52:02 METAR KCQT 150552Z 00000KT 8SM CLR 14/10 A3011 RMK AO2 SLP197 T01390100 10189 20133 51015,FM-15,7,,,,,,,,,,,,,,,,,,,,,,,,,,,,2006-02-03
72287493134,2020-02-14T22:52:00,FM-15,7,,,3.89,mi,,,,,,,PENDING COOP,,,,,,,,,,,,,,,,,,,,,,,,,,,30.12,50,56,0.00,,,,81,30.11,CLR:00,29.92,8.00,53,0,,0,,,,,,,,,,,,,,,,,,,,,,,,,,,,,,,,,,,,,MET08902/14/20 22:52:02 METAR KCQT 150652Z 00000KT 8SM CLR 13/10 A3012 RMK AO2 SLP196 T01330100,FM-15,7,,,,,,,,,,,,,,,,,,,,,,,,,,,,2006-02-03
72287493134,2020-02-14T23:52:00,FM-15,7,,,3.89,mi,,,,,,,PENDING COOP,,,,,,,,,,,,,,,,,,,,,,,,,,,30.12,49,56,0.00,,,,77,30.12,CLR:00,29.92,7.00,52,0,,0,,,,,,,,,,,,,,,,,,,,,,,,,,,,,,,,,,,,,MET09902/14/20 23:52:02 METAR KCQT 150752Z 00000KT 7SM CLR 13/09 A3012 RMK AO2 SLP199 T01330094 402170094,FM-15,7,,,,,,,,,,,,,,,,,,,,,,,,,,,,2006-02-03
72287493134,2020-02-14T23:59:00,SOD  ,6,,,3.89,mi,,,,,,,PENDING COOP,,,,,60,,,29.86,,0.6,0,1.9,5,71,49,260,13,0.00,0,0.0,260,8,,,,,,,,,,,,,,,,,,,,,,,,,,,,,,,,,,,,,,,,,,,,,,,,,,,,,,,,,SOD75624 HR PRECIPITATION (IN): 0.00 SNOW DEPTH (IN):0     24 HR SNOWFALL (IN):0.0  WEATHER(CODE):8  24 HR MAX TEMP (F): 7124 HR MIN TEMP (F): 49AVERAGE STATION PRESSURE:29.860 MINIMUM SEA LEVEL PRESSURE:30.01 TIME OF OCCURRENCE:1424 PEAK WIND SPEED (MPH): 13 PEAK WIND DIR (DEG):260 PEAK WIND TIME (LST):      FASTEST 2MIN SPEED (MPH):  8FASTEST 2MIN DIR (DEG):260 FASTEST 2MIN TIME (LST):     AVERAGE WIND SPEED (MPH): 0.6 24 HR AVG TEMP (F): 60DEPART FROM NORMAL:  1  HEATING DEGREE DAYS:  5 COOLING DEGREE DAYS:  0 LATEST DAY MAX TEMP (0700-1900 LST):71  LATEST NIGHT MIN TEMP(1900-0800 LST):49 HOURLY INCREMENTAL PRECIPITATION VALUES (IN):.00 0.00 0.00 0.00 0.00 0.00 0.00 0.00 0.00 0.00 0.00 0.00 0.00 0.00 0.00 0.00 0.00 0.00 0.00 0.00 0.00 0.00 0.00 0.00,SOD  ,6,,,,,,,,,,,,,,,,,,,,,,,,,639,1736,,2006-02-03
72287493134,2020-02-15T00:52:00,FM-15,7,,,3.89,mi,,,,,,,PENDING COOP,,,,,,,,,,,,,,,,,,,,,,,,,,,30.14,47,54,0.00,,-0.02,3,77,30.13,CLR:00,29.94,8.00,50,0,,0,,,,,,,,,,,,,,,,,,,,,,,,,,,,,,,,,,,,,MET09502/15/20 00:52:02 METAR KCQT 150852Z 00000KT 8SM CLR 12/08 A3014 RMK AO2 SLP204 T01220083 53007,FM-15,7,,,,,,,,,,,,,,,,,,,,,,,,,,,,2006-02-03
72287493134,2020-02-15T01:52:00,FM-15,7,,,3.89,mi,,,,,,,PENDING COOP,,,,,,,,,,,,,,,,,,,,,,,,,,,30.13,46,53,0.00,,,,77,30.13,CLR:00,29.93,7.00,49,0,,0,,,,,,,,,,,,,,,,,,,,,,,,,,,,,,,,,,,,,MET08902/15/20 01:52:02 METAR KCQT 150952Z 00000KT 7SM CLR 12/08 A3013 RMK AO2 SLP203 T01170078,FM-15,7,,,,,,,,,,,,,,,,,,,,,,,,,,,,2006-02-03
72287493134,2020-02-15T02:52:00,FM-15,7,,,3.89,mi,,,,,,,PENDING COOP,,,,,,,,,,,,,,,,,,,,,,,,,,,30.13,46,52,0.00,,,,80,30.13,CLR:00,29.93,7.00,49,0,,0,,,,,,,,,,,,,,,,,,,,,,,,,,,,,,,,,,,,,MET08902/15/20 02:52:02 METAR KCQT 151052Z 00000KT 7SM CLR 11/08 A3013 RMK AO2 SLP202 T01110078,FM-15,7,,,,,,,,,,,,,,,,,,,,,,,,,,,,2006-02-03
72287493134,2020-02-15T03:52:00,FM-15,7,,,3.89,mi,,,,,,,PENDING COOP,,,,,,,,,,,,,,,,,,,,,,,,,,,30.14,45,51,0.00,,+0.00,5,80,30.14,CLR:00,29.94,7.00,48,0,,0,,,,,,,,,,,,,,,,,,,,,,,,,,,,,,,,,,,,,MET10702/15/20 03:52:02 METAR KCQT 151152Z 00000KT 7SM CLR 11/07 A3014 RMK AO2 SLP205 T01060072 10139 20106 55000,FM-15,7,,,,,,,,,,,,,,,,,,,,,,,,,,,,2006-02-03
72287493134,2020-02-15T04:52:00,FM-15,7,,,3.89,mi,,,,,,,PENDING COOP,,,,,,,,,,,,,,,,,,,,,,,,,,,30.14,44,50,0.00,,,,80,30.14,CLR:00,29.94,8.00,47,0,,0,,,,,,,,,,,,,,,,,,,,,,,,,,,,,,,,,,,,,MET08902/15/20 04:52:02 METAR KCQT 151252Z 00000KT 8SM CLR 10/07 A3014 RMK AO2 SLP205 T01000067,FM-15,7,,,,,,,,,,,,,,,,,,,,,,,,,,,,2006-02-03
72287493134,2020-02-15T05:52:00,FM-15,7,,,3.89,mi,,,,,,,PENDING COOP,,,,,,,,,,,,,,,,,,,,,,,,,,,30.15,42,50,0.00,,,,74,30.14,CLR:00,29.95,9.00,46,0,,0,,,,,,,,,,,,,,,,,,,,,,,,,,,,,,,,,,,,,MET09302/15/20 05:52:02 METAR KCQT 151352Z 00000KT 9SM CLR 10/06 A3015 RMK AO2 SLP208 T01000056 RTX,FM-15,7,,,,,,,,,,,,,,,,,,,,,,,,,,,,2006-02-03
72287493134,2020-02-15T06:52:00,FM-15,7,,,3.89,mi,,,,,,,PENDING COOP,,,,,,,,,,,,,,,,,,,,,,,,,,,30.15,41,49,0.00,,-0.01,3,74,30.15,CLR:00,29.95,8.00,45,0,,0,,,,,,,,,,,,,,,,,,,,,,,,,,,,,,,,,,,,,MET09502/15/20 06:52:02 METAR KCQT 151452Z 00000KT 8SM CLR 09/05 A3015 RMK AO2 SLP209 T00940050 53004,FM-15,7,,,,,,,,,,,,,,,,,,,,,,,,,,,,2006-02-03
72287493134,2020-02-15T07:52:00,FM-15,7,,,3.89,mi,,,,,,,PENDING COOP,,,,,,,,,,,,,,,,,,,,,,,,,,,30.17,43,53,0.00,,,,69,30.17,CLR:00,29.97,7.00,48,0,,0,,,,,,,,,,,,,,,,,,,,,,,,,,,,,,,,,,,,,MET08902/15/20 07:52:02 METAR KCQT 151552Z 00000KT 7SM CLR 12/06 A3017 RMK AO2 SLP216 T01170061,FM-15,7,,,,,,,,,,,,,,,,,,,,,,,,,,,,2006-02-03
72287493134,2020-02-15T08:52:00,FM-15,7,,,3.89,mi,,,,,,,PENDING COOP,,,,,,,,,,,,,,,,,,,,,,,,,,,30.19,43,59,0.00,,,,56,30.19,CLR:00,29.99,8.00,51,0,,0,,,,,,,,,,,,,,,,,,,,,,,,,,,,,,,,,,,,,MET08902/15/20 08:52:02 METAR KCQT 151652Z 00000KT 8SM CLR 15/06 A3019 RMK AO2 SLP223 T01500061,FM-15,7,,,,,,,,,,,,,,,,,,,,,,,,,,,,2006-02-03
72287493134,2020-02-15T09:52:00,FM-15,7,,,3.89,mi,,,,,,,PENDING COOP,,,,,,,,,,,,,,,,,,,,,,,,,,,30.18,41,63,0.00,,-0.04,0,45,30.18,CLR:00,29.98,9.00,52,0,,0,,,,,,,,,,,,,,,,,,,,,,,,,,,,,,,,,,,,,MET10702/15/20 09:52:02 METAR KCQT 151752Z 00000KT 9SM CLR 17/05 A3018 RMK AO2 SLP221 T01720050 10172 20094 50012,FM-15,7,,,,,,,,,,,,,,,,,,,,,,,,,,,,2006-02-03
72287493134,2020-02-15T10:52:00,FM-15,7,,,3.89,mi,,,,,,,PENDING COOP,,,,,,,,,,,,,,,,,,,,,,,,,,,30.18,39,67,0.00,,,,36,30.17,CLR:00,29.98,8.00,53,0,,0,,,,,,,,,,,,,,,,,,,,,,,,,,,,,,,,,,,,,MET08902/15/20 10:52:02 METAR KCQT 151852Z 00000KT 8SM CLR 19/04 A3018 RMK AO2 SLP218 T01940039,FM-15,7,,,,,,,,,,,,,,,,,,,,,,,,,,,,2006-02-03
72287493134,2020-02-15T11:52:00,FM-15,7,,,3.89,mi,,,,,,,PENDING COOP,,,,,,,,,,,,,,,,,,,,,,,,,,,30.16,39,69,0.00,,,,33,30.15,CLR:00,29.96,8.00,54,0,,0,,,,,,,,,,,,,,,,,,,,,,,,,,,,,,,,,,,,,MET08902/15/20 11:52:02 METAR KCQT 151952Z 00000KT 8SM CLR 21/04 A3016 RMK AO2 SLP210 T02060039,FM-15,7,,,,,,,,,,,,,,,,,,,,,,,,,,,,2006-02-03
72287493134,2020-02-15T12:52:00,FM-15,7,,,3.89,mi,,,,,,,PENDING COOP,,,,,,,,,,,,,,,,,,,,,,,,,,,30.14,51,69,0.00,,+0.05,8,53,30.13,CLR:00,29.94,7.00,59,0,,0,,,,,,,,,,,,,,,,,,,,,,,,,,,,,,,,,,,,,MET09502/15/20 12:52:02 METAR KCQT 152052Z 00000KT 7SM CLR 21/11 A3014 RMK AO2 SLP203 T02060106 58017,FM-15,7,,,,,,,,,,,,,,,,,,,,,,,,,,,,2006-02-03
72287493134,2020-02-15T13:52:00,FM-15,7,,,3.89,mi,,,,,,,PENDING COOP,,,,,,,,,,,,,,,,,,,,,,,,,,,30.12,48,69,0.00,,,,47,30.11,CLR:00,29.92,8.00,57,250,,3,,,,,,,,,,,,,,,,,,,,,,,,,,,,,,,,,,,,,MET08902/15/20 13:52:02 METAR KCQT 152152Z 25003KT 8SM CLR 21/09 A3012 RMK AO2 SLP197 T02060089,FM-15,7,,,,,,,,,,,,,,,,,,,,,,,,,,,,2006-02-03
72287493134,2020-02-15T14:52:00,FM-15,7,,,3.89,mi,,,,,,,PENDING COOP,,,,,,,,,,,,,,,,,,,,,,,,,,,30.11,47,68,0.00,,,,47,30.11,CLR:00,29.91,10.00,57,VRB,,5,,,,,,,,,,,,,,,,,,,,,,,,,,,,,,,,,,,,,MET09002/15/20 14:52:02 METAR KCQT 152252Z VRB04KT 10SM CLR 20/08 A3011 RMK AO2 SLP195 T02000083,FM-15,7,,,,,,,,,,,,,,,,,,,,,,,,,,,,2006-02-03
72287493134,2020-02-15T15:52:00,FM-15,7,,,3.89,mi,,,,,,,PENDING COOP,,,,,,,,,,,,,,,,,,,,,,,,,,,30.11,48,66,0.00,,+0.03,5,52,30.11,CLR:00,29.91,10.00,56,270,,8,,,,,,,,,,,,,,,,,,,,,,,,,,,,,,,,,,,,,MET10802/15/20 15:52:02 METAR KCQT 152352Z 27007KT 10SM CLR 19/09 A3011 RMK AO2 SLP195 T01890089 10211 20172 55009,FM-15,7,,,,,,,,,,,,,,,,,,,,,,,,,,,,2006-02-03
72287493134,2020-02-15T16:52:00,FM-15,7,,,3.89,mi,,,,,,,PENDING COOP,,,,,,,,,,,,,,,,,,,,,,,,,,,30.10,49,64,0.00,,,,58,30.10,CLR:00,29.90,10.00,56,260,,5,,,,,,,,,,,,,,,,,,,,,,,,,,,,,,,,,,,,,MET09002/15/20 16:52:01 METAR KCQT 160052Z 26004KT 10SM CLR 18/09 A3010 RMK AO2 SLP193 T01780094,FM-15,7,,,,,,,,,,,,,,,,,,,,,,,,,,,,2006-02-03
72287493134,2020-02-15T17:52:00,FM-15,7,,,3.89,mi,,,,,,,PENDING COOP,,,,,,,,,,,,,,,,,,,,,,,,,,,30.11,49,61,0.00,,,,65,30.11,CLR:00,29.91,10.00,55,0,,0,,,,,,,,,,,,,,,,,,,,,,,,,,,,,,,,,,,,,MET09002/15/20 17:52:01 METAR KCQT 160152Z 00000KT 10SM CLR 16/09 A3011 RMK AO2 SLP197 T01610094,FM-15,7,,,,,,,,,,,,,,,,,,,,,,,,,,,,2006-02-03
72287493134,2020-02-15T18:52:00,FM-15,7,,,3.89,mi,,,,,,,PENDING COOP,,,,,,,,,,,,,,,,,,,,,,,,,,,30.12,50,60,0.00,,-0.01,3,70,30.12,CLR:00,29.92,10.00,55,0,,0,,,,,,,,,,,,,,,,,,,,,,,,,,,,,,,,,,,,,MET09602/15/20 18:52:01 METAR KCQT 160252Z 00000KT 10SM CLR 16/10 A3012 RMK AO2 SLP200 T01560100 53005,FM-15,7,,,,,,,,,,,,,,,,,,,,,,,,,,,,2006-02-03
72287493134,2020-02-15T19:52:00,FM-15,7,,,3.89,mi,,,,,,,PENDING COOP,,,,,,,,,,,,,,,,,,,,,,,,,,,30.15,50,59,0.00,,,,72,30.14,CLR:00,29.95,9.00,54,0,,0,,,,,,,,,,,,,,,,,,,,,,,,,,,,,,,,,,,,,MET08902/15/20 19:52:01 METAR KCQT 160352Z 00000KT 9SM CLR 15/10 A3015 RMK AO2 SLP208 T01500100,FM-15,7,,,,,,,,,,,,,,,,,,,,,,,,,,,,2006-02-03
72287493134,2020-02-15T20:52:00,FM-15,7,,,3.89,mi,,,,,,,PENDING COOP,,,,,,,,,,,,,,,,,,,,,,,,,,,30.15,51,58,0.00,,,,78,30.14,CLR:00,29.95,8.00,54,0,,0,,,,,,,,,,,,,,,,,,,,,,,,,,,,,,,,,,,,,MET08902/15/20 20:52:02 METAR KCQT 160452Z 00000KT 8SM CLR 14/11 A3015 RMK AO2 SLP208 T01440106,FM-15,7,,,,,,,,,,,,,,,,,,,,,,,,,,,,2006-02-03
72287493134,2020-02-15T21:52:00,FM-15,7,,,3.89,mi,,,,,,,PENDING COOP,,,,,,,,,,,,,,,,,,,,,,,,,,,30.15,51,57,0.00,,-0.02,1,81,30.14,CLR:00,29.95,7.00,54,0,,0,,,,,,,,,,,,,,,,,,,,,,,,,,,,,,,,,,,,,MET10702/15/20 21:52:02 METAR KCQT 160552Z 00000KT 7SM CLR 14/11 A3015 RMK AO2 SLP208 T01390106 10189 20139 51007,FM-15,7,,,,,,,,,,,,,,,,,,,,,,,,,,,,2006-02-03
72287493134,2020-02-15T22:52:00,FM-15,7,,,3.89,mi,,,,,,,PENDING COOP,,,,,,,,,,,,,,,,,,,,,,,,,,,30.15,51,57,0.00,HZ:7 |FU |HZ,,,81,30.14,CLR:00,29.95,5.00,54,0,,0,,,,,,,,,,,,,,,,,,,,,,,,,,,,,,,,,,,,,MET09202/15/20 22:52:02 METAR KCQT 160652Z 00000KT 5SM HZ CLR 14/11 A3015 RMK AO2 SLP206 T01390106,FM-15,7,,,,,,,,,,,,,,,,,,,,,,,,,,,,2006-02-03
72287493134,2020-02-15T23:52:00,FM-15,7,,,3.89,mi,,,,,,,PENDING COOP,,,,,,,,,,,,,,,,,,,,,,,,,,,30.14,50,56,0.00,HZ:7 |FU |HZ,,,81,30.14,FEW:02 6,29.94,4.00,53,0,,0,,,,,,,,,,,,,,,,,,,,,,,,,,,,,,,,,,,,,MET10502/15/20 23:52:02 METAR KCQT 160752Z 00000KT 4SM HZ FEW006 13/10 A3014 RMK AO2 SLP205 T01330100 402110094,FM-15,7,,,,,,,,,,,,,,,,,,,,,,,,,,,,2006-02-03
72287493134,2020-02-15T23:59:00,SOD  ,6,,,3.89,mi,,,,,,,PENDING COOP,,,,,60,,,29.94,,0.9,0,1.8,5,70,49,270,13,0.00,0,0.0,260,8,HZ,,,,,,,,,,,,,,,,,,,,,,,,,,,,,,,,,,,,,,,,,,,,,,,,,,,,,,,,SOD75624 HR PRECIPITATION (IN): 0.00 SNOW DEPTH (IN):0     24 HR SNOWFALL (IN):0.0  WEATHER(CODE):8  24 HR MAX TEMP (F): 7024 HR MIN TEMP (F): 49AVERAGE STATION PRESSURE:29.940 MINIMUM SEA LEVEL PRESSURE:30.09 TIME OF OCCURRENCE:1629 PEAK WIND SPEED (MPH): 13 PEAK WIND DIR (DEG):270 PEAK WIND TIME (LST):      FASTEST 2MIN SPEED (MPH):  8FASTEST 2MIN DIR (DEG):260 FASTEST 2MIN TIME (LST):     AVERAGE WIND SPEED (MPH): 0.9 24 HR AVG TEMP (F): 60DEPART FROM NORMAL:  1  HEATING DEGREE DAYS:  5 COOLING DEGREE DAYS:  0 LATEST DAY MAX TEMP (0700-1900 LST):70  LATEST NIGHT MIN TEMP(1900-0800 LST):49 HOURLY INCREMENTAL PRECIPITATION VALUES (IN):.00 0.00 0.00 0.00 0.00 0.00 0.00 0.00 0.00 0.00 0.00 0.00 0.00 0.00 0.00 0.00 0.00 0.00 0.00 0.00 0.00 0.00 0.00 0.00,SOD  ,6,,,,,,,,,,,,,,,,,,,,,,,,,638,1737,,2006-02-03
